{
"type": "FeatureCollection",
"name": "districts",
"crs": { "type": "name", "properties": { "name": "urn:ogc:def:crs:OGC:1.3:CRS84" } },
"features": [
{ "type": "Feature", "properties": { "shapeName": "Lakhimpur", "shapeISO": "", "shapeID": "76128533B85627242103654", "shapeGroup": "IND", "shapeType": "ADM2" }, "geometry": { "type": "MultiPolygon", "coordinates": [ [ [ [ 93.69876, 26.9919 ], [ 93.70083, 26.99053 ], [ 93.70369, 26.98526 ], [ 93.72598, 26.97484 ], [ 93.72802, 26.96958 ], [ 93.737584477000041, 26.964434537000045 ], [ 93.7435, 26.95846 ], [ 93.74658, 26.94798 ], [ 93.74551, 26.93723 ], [ 93.75131, 26.9185 ], [ 93.751715096000055, 26.915428452000068 ], [ 93.75129, 26.90893 ], [ 93.74666, 26.90737 ], [ 93.7437, 26.90795 ], [ 93.74506, 26.90062 ], [ 93.7491, 26.89435 ], [ 93.75409, 26.89252 ], [ 93.75466, 26.89325 ], [ 93.7569, 26.89523 ], [ 93.76242, 26.89533 ], [ 93.76937, 26.8992 ], [ 93.78178, 26.89592 ], [ 93.78815, 26.8848 ], [ 93.783800855000038, 26.877805585000029 ], [ 93.78256, 26.87708 ], [ 93.78204, 26.87308 ], [ 93.78902, 26.85764 ], [ 93.7746, 26.84934 ], [ 93.772772074000045, 26.846131543000066 ], [ 93.7658, 26.83709 ], [ 93.77037, 26.82901 ], [ 93.77306, 26.82426 ], [ 93.77258, 26.80647 ], [ 93.77484, 26.79231 ], [ 93.78142011400007, 26.800118269000048 ], [ 93.781553633000044, 26.800340543000065 ], [ 93.786754399000074, 26.808696816000065 ], [ 93.78766, 26.8179 ], [ 93.79378, 26.82826 ], [ 93.80698, 26.82304 ], [ 93.82027, 26.82338 ], [ 93.82522, 26.82539 ], [ 93.837, 26.84059 ], [ 93.84204, 26.85226 ], [ 93.850473620000059, 26.851511046000034 ], [ 93.84563, 26.84517 ], [ 93.856578681000087, 26.850566778000026 ], [ 93.857278362000045, 26.850554501000033 ], [ 93.85427, 26.84134 ], [ 93.85802, 26.83825 ], [ 93.8899, 26.86773 ], [ 93.92484, 26.89051 ], [ 93.94669, 26.89861 ], [ 93.94265, 26.90114 ], [ 93.94403, 26.90503 ], [ 93.954321993000065, 26.904871328000073 ], [ 93.957695264000051, 26.904365337000055 ], [ 93.96903, 26.91225 ], [ 93.96257, 26.92615 ], [ 93.97519, 26.92361 ], [ 93.98666, 26.92766 ], [ 93.99852, 26.94003 ], [ 94.006892981000078, 26.934791973000067 ], [ 94.007012878000069, 26.934716967000039 ], [ 94.01251, 26.92767 ], [ 94.02557, 26.9301 ], [ 94.02913, 26.93475 ], [ 94.02656, 26.94738 ], [ 94.02756, 26.95636 ], [ 94.04075, 26.96772 ], [ 94.04352, 26.97392 ], [ 94.05277, 26.97933 ], [ 94.05985, 26.98041 ], [ 94.06718, 26.97801 ], [ 94.0685, 26.98441 ], [ 94.07226, 26.9907 ], [ 94.0832, 26.99918 ], [ 94.09343, 26.99513 ], [ 94.10315, 26.9868 ], [ 94.10928, 26.97769 ], [ 94.11024, 26.96997 ], [ 94.11893, 26.97072 ], [ 94.13391, 26.96935 ], [ 94.1386, 26.97233 ], [ 94.14013, 26.97633 ], [ 94.13724, 26.98957 ], [ 94.15424, 26.99387 ], [ 94.15859, 26.99906 ], [ 94.1634, 26.99933 ], [ 94.16982, 26.99736 ], [ 94.17445, 26.99948 ], [ 94.17806, 26.99938 ], [ 94.18087, 26.99725 ], [ 94.18565, 27.00059 ], [ 94.19187, 27.01091 ], [ 94.19154, 27.01608 ], [ 94.18676, 27.0282 ], [ 94.18981, 27.0358 ], [ 94.19445, 27.03723 ], [ 94.20242, 27.02909 ], [ 94.21875, 27.03016 ], [ 94.2244, 27.03195 ], [ 94.22575, 27.03567 ], [ 94.2232, 27.03814 ], [ 94.23037, 27.05945 ], [ 94.23808, 27.07334 ], [ 94.25335, 27.08503 ], [ 94.2661, 27.09228 ], [ 94.28115, 27.09527 ], [ 94.28598, 27.09113 ], [ 94.295806204000087, 27.086151305000048 ], [ 94.296350138000037, 27.085875980000026 ], [ 94.30248, 27.08018 ], [ 94.30746, 27.07242 ], [ 94.31274, 27.07006 ], [ 94.31612, 27.07284 ], [ 94.32374, 27.08751 ], [ 94.33703, 27.08121 ], [ 94.34537, 27.08272 ], [ 94.35174, 27.08574 ], [ 94.35818, 27.09267 ], [ 94.36714, 27.09772 ], [ 94.38321, 27.09537 ], [ 94.39212, 27.09765 ], [ 94.41759, 27.09091 ], [ 94.42415, 27.09532 ], [ 94.42762, 27.1 ], [ 94.42718, 27.1123 ], [ 94.43176, 27.11689 ], [ 94.43812, 27.11932 ], [ 94.44104, 27.11831 ], [ 94.4459, 27.11662 ], [ 94.45711, 27.11492 ], [ 94.46182, 27.11159 ], [ 94.46985, 27.11433 ], [ 94.47391, 27.12208 ], [ 94.47389, 27.13138 ], [ 94.47766, 27.13538 ], [ 94.48339, 27.13769 ], [ 94.49012, 27.1333 ], [ 94.49038, 27.12726 ], [ 94.49306, 27.12261 ], [ 94.50329, 27.12013 ], [ 94.50835, 27.12047 ], [ 94.51184, 27.1401 ], [ 94.51361, 27.1418 ], [ 94.51544, 27.14918 ], [ 94.51964, 27.15285 ], [ 94.52607, 27.16794 ], [ 94.53027, 27.17161 ], [ 94.54803, 27.17915 ], [ 94.5474, 27.1838 ], [ 94.53403, 27.19292 ], [ 94.53373, 27.19695 ], [ 94.535521892000077, 27.200950877000018 ], [ 94.54669, 27.20764 ], [ 94.546726914000033, 27.210421692000072 ], [ 94.53884, 27.21577 ], [ 94.53887, 27.21825 ], [ 94.54274, 27.22254 ], [ 94.53972, 27.22361 ], [ 94.52996, 27.22707 ], [ 94.52873, 27.22811 ], [ 94.5198, 27.2351 ], [ 94.51532, 27.24183 ], [ 94.5126, 27.2789 ], [ 94.51507, 27.29434 ], [ 94.51044, 27.31197 ], [ 94.50721, 27.31822 ], [ 94.51311, 27.32534 ], [ 94.5083, 27.33219 ], [ 94.51544, 27.33556 ], [ 94.51948, 27.33471 ], [ 94.52298, 27.33182 ], [ 94.52721, 27.33926 ], [ 94.51876, 27.34083 ], [ 94.51749, 27.34804 ], [ 94.51377, 27.35311 ], [ 94.50987, 27.34879 ], [ 94.50989, 27.34306 ], [ 94.5069, 27.34074 ], [ 94.50599, 27.33668 ], [ 94.50281, 27.33487 ], [ 94.5001, 27.3356 ], [ 94.49178, 27.33333 ], [ 94.48962, 27.33613 ], [ 94.48719, 27.3339 ], [ 94.4745, 27.33082 ], [ 94.47397, 27.32933 ], [ 94.4774, 27.32816 ], [ 94.47405, 27.32665 ], [ 94.47369, 27.32265 ], [ 94.47235, 27.32312 ], [ 94.47119, 27.33361 ], [ 94.46663, 27.335 ], [ 94.46298, 27.33184 ], [ 94.45864, 27.32299 ], [ 94.45566, 27.32443 ], [ 94.45399, 27.32263 ], [ 94.45008, 27.3226 ], [ 94.45085, 27.31487 ], [ 94.44857, 27.31338 ], [ 94.44581, 27.31501 ], [ 94.44821, 27.3208 ], [ 94.44429, 27.31963 ], [ 94.44183, 27.32113 ], [ 94.44038, 27.3197 ], [ 94.43474, 27.32114 ], [ 94.4331, 27.32747 ], [ 94.43659, 27.32924 ], [ 94.43649, 27.33116 ], [ 94.43236, 27.3323 ], [ 94.42949, 27.34246 ], [ 94.42503, 27.34476 ], [ 94.42362, 27.34277 ], [ 94.42203, 27.3461 ], [ 94.41938, 27.34382 ], [ 94.41718, 27.34427 ], [ 94.41337, 27.34679 ], [ 94.41171, 27.35177 ], [ 94.40503, 27.35091 ], [ 94.40285, 27.34836 ], [ 94.40103, 27.34849 ], [ 94.39181, 27.35944 ], [ 94.3807, 27.3554 ], [ 94.38054, 27.35353 ], [ 94.38358, 27.35018 ], [ 94.38087, 27.34626 ], [ 94.37494, 27.34783 ], [ 94.36991, 27.34624 ], [ 94.37004, 27.33377 ], [ 94.36774, 27.33293 ], [ 94.35416, 27.34168 ], [ 94.35466, 27.33805 ], [ 94.34973, 27.33971 ], [ 94.34629, 27.32322 ], [ 94.34448, 27.32102 ], [ 94.34386, 27.32424 ], [ 94.34037, 27.32725 ], [ 94.32578, 27.32439 ], [ 94.3194, 27.33056 ], [ 94.3042, 27.31979 ], [ 94.30278, 27.32706 ], [ 94.29948, 27.3334 ], [ 94.30214, 27.34077 ], [ 94.29933, 27.35117 ], [ 94.28554, 27.355 ], [ 94.2723, 27.36267 ], [ 94.25055, 27.38275 ], [ 94.24747, 27.38997 ], [ 94.25201, 27.39732 ], [ 94.25673, 27.39955 ], [ 94.26604, 27.39853 ], [ 94.26989, 27.39309 ], [ 94.28565, 27.38262 ], [ 94.29868, 27.38664 ], [ 94.30476, 27.39618 ], [ 94.30684, 27.41191 ], [ 94.30448, 27.42121 ], [ 94.30635, 27.43185 ], [ 94.30554, 27.43708 ], [ 94.29049, 27.4487 ], [ 94.28302, 27.45796 ], [ 94.27845, 27.46817 ], [ 94.2803, 27.48898 ], [ 94.27958, 27.50203 ], [ 94.26588, 27.50836 ], [ 94.25037, 27.50527 ], [ 94.24856, 27.50512 ], [ 94.24065, 27.506 ], [ 94.23924, 27.50677 ], [ 94.23406, 27.50743 ], [ 94.22499, 27.50542 ], [ 94.21112, 27.49506 ], [ 94.19207, 27.49324 ], [ 94.18772, 27.48773 ], [ 94.17552, 27.481 ], [ 94.16875, 27.48113 ], [ 94.16504, 27.47793 ], [ 94.15802, 27.475 ], [ 94.161, 27.46341 ], [ 94.14159, 27.4454 ], [ 94.11786, 27.42792 ], [ 94.10728, 27.41501 ], [ 94.09407, 27.4079 ], [ 94.08711, 27.40152 ], [ 94.06164, 27.36052 ], [ 94.05555, 27.35979 ], [ 94.04237, 27.35026 ], [ 94.00074, 27.33172 ], [ 94.00141, 27.32714 ], [ 93.99091, 27.32168 ], [ 93.98166, 27.31079 ], [ 93.95723, 27.29181 ], [ 93.9346, 27.26537 ], [ 93.90172, 27.23859 ], [ 93.89364, 27.22803 ], [ 93.88628, 27.22143 ], [ 93.8681, 27.1959 ], [ 93.85811, 27.18816 ], [ 93.84051, 27.17053 ], [ 93.82962, 27.16773 ], [ 93.81766, 27.15533 ], [ 93.80921, 27.14884 ], [ 93.80621, 27.13489 ], [ 93.8141, 27.12908 ], [ 93.81193, 27.12333 ], [ 93.81552, 27.11966 ], [ 93.8225, 27.11908 ], [ 93.82777, 27.10897 ], [ 93.82714, 27.09639 ], [ 93.83183, 27.08943 ], [ 93.83722, 27.07519 ], [ 93.82871, 27.06594 ], [ 93.82334, 27.06531 ], [ 93.81925, 27.06193 ], [ 93.81335, 27.06768 ], [ 93.809, 27.05957 ], [ 93.79813, 27.0609 ], [ 93.79448, 27.05475 ], [ 93.7879, 27.05125 ], [ 93.78168, 27.05786 ], [ 93.77964, 27.05039 ], [ 93.77419, 27.05941 ], [ 93.76896, 27.04034 ], [ 93.71943, 27.01632 ], [ 93.70607, 27.00544 ], [ 93.70617, 27.00077 ], [ 93.69876, 26.9919 ] ] ] ] } },
{ "type": "Feature", "properties": { "shapeName": "Nagaon", "shapeISO": "", "shapeID": "76128533B13437137070957", "shapeGroup": "IND", "shapeType": "ADM2" }, "geometry": { "type": "MultiPolygon", "coordinates": [ [ [ [ 92.4013, 26.13878 ], [ 92.401558230000035, 26.139406280000056 ], [ 92.401222634000078, 26.138422502000026 ], [ 92.412285840000038, 26.135808300000061 ], [ 92.4137, 26.13366 ], [ 92.41379, 26.13352 ], [ 92.40932, 26.12759 ], [ 92.40713, 26.12589 ], [ 92.40699, 26.1226 ], [ 92.40474, 26.11931 ], [ 92.404821222000066, 26.118189135000023 ], [ 92.404856679957163, 26.117930801312738 ], [ 92.42066, 26.11869 ], [ 92.42517, 26.115 ], [ 92.433540786654007, 26.11548774341825 ], [ 92.43372, 26.11953 ], [ 92.43374, 26.12009 ], [ 92.435424023000053, 26.121771836000043 ], [ 92.44281, 26.12208 ], [ 92.44302, 26.12381 ], [ 92.44662, 26.12614 ], [ 92.453030312000067, 26.134348738000025 ], [ 92.458958541000072, 26.134732975000073 ], [ 92.460275925000076, 26.137559862000046 ], [ 92.46714, 26.14302 ], [ 92.46996, 26.14649 ], [ 92.47376, 26.14675 ], [ 92.47549, 26.14554 ], [ 92.47629, 26.14207 ], [ 92.47719, 26.14187 ], [ 92.47744, 26.142 ], [ 92.492524390000085, 26.149279091000032 ], [ 92.49781, 26.1491 ], [ 92.4988, 26.14908 ], [ 92.50539, 26.14662 ], [ 92.5085, 26.14249 ], [ 92.510116958000083, 26.141374787000075 ], [ 92.51583, 26.14517 ], [ 92.52171, 26.15037 ], [ 92.52682, 26.14826 ], [ 92.52684, 26.14822 ], [ 92.52938, 26.14307 ], [ 92.52703, 26.1367 ], [ 92.52644, 26.13553 ], [ 92.52491, 26.13243 ], [ 92.52196, 26.11652 ], [ 92.52107, 26.11283 ], [ 92.52217, 26.1019 ], [ 92.5253, 26.10099 ], [ 92.53118, 26.10079 ], [ 92.53265, 26.10074 ], [ 92.533, 26.09997 ], [ 92.534904734000079, 26.095846226000045 ], [ 92.54099, 26.10039 ], [ 92.54243, 26.10239 ], [ 92.54283, 26.10268 ], [ 92.546026157000085, 26.104997214000036 ], [ 92.54628, 26.1069 ], [ 92.54708, 26.10827 ], [ 92.55531, 26.1135 ], [ 92.567119552000065, 26.115296413000067 ], [ 92.57293, 26.11428 ], [ 92.577883335000081, 26.110193264000031 ], [ 92.57788, 26.10525 ], [ 92.58029, 26.1027 ], [ 92.58111, 26.10119 ], [ 92.58028, 26.10105 ], [ 92.57949, 26.09922 ], [ 92.57897, 26.09741 ], [ 92.57855, 26.09658 ], [ 92.5782, 26.09618 ], [ 92.57733, 26.09546 ], [ 92.57773, 26.0944 ], [ 92.57989, 26.09219 ], [ 92.58859, 26.08531 ], [ 92.59208, 26.08399 ], [ 92.5979, 26.07549 ], [ 92.59683, 26.06904 ], [ 92.58695, 26.05568 ], [ 92.58627, 26.05423 ], [ 92.58505, 26.04253 ], [ 92.58214, 26.03452 ], [ 92.58334, 26.03027 ], [ 92.58507, 26.02907 ], [ 92.58695, 26.02776 ], [ 92.59038, 26.02759 ], [ 92.594350636000073, 26.025884111000035 ], [ 92.59355, 26.02207 ], [ 92.58422, 26.01819 ], [ 92.57876, 26.01669 ], [ 92.5716, 26.01198 ], [ 92.56845, 26.00674 ], [ 92.57001, 26.00463 ], [ 92.571836747000091, 26.003756174000053 ], [ 92.5717, 26.00104 ], [ 92.555602626000052, 25.975332390000055 ], [ 92.551, 25.97036 ], [ 92.55909, 25.96424 ], [ 92.57206, 25.96092 ], [ 92.57523, 25.96141 ], [ 92.57994, 25.96488 ], [ 92.58183, 25.96486 ], [ 92.5885, 25.96432 ], [ 92.59251, 25.96471 ], [ 92.59699, 25.97167 ], [ 92.59961141000008, 25.975735658000072 ], [ 92.6042, 25.97582 ], [ 92.60498, 25.97583 ], [ 92.60546, 25.97584 ], [ 92.60616, 25.9755 ], [ 92.61421, 25.97766 ], [ 92.62284, 25.98461 ], [ 92.622887767306409, 25.984625922435463 ], [ 92.623077287000058, 25.984780182000069 ], [ 92.62843, 25.9865 ], [ 92.62989, 25.98717 ], [ 92.63127, 25.98827 ], [ 92.63497, 25.98904 ], [ 92.63648, 25.99212 ], [ 92.64079, 25.99689 ], [ 92.64944, 25.99831 ], [ 92.657049137000058, 25.998918369000013 ], [ 92.66042, 26.00639 ], [ 92.65994, 26.00753 ], [ 92.65841, 26.01118 ], [ 92.65913, 26.01546 ], [ 92.65738, 26.01945 ], [ 92.65793, 26.0201 ], [ 92.66256, 26.0227 ], [ 92.66612, 26.02513 ], [ 92.66814, 26.02692 ], [ 92.669485092000059, 26.028119676000067 ], [ 92.67512, 26.02623 ], [ 92.67585, 26.0248 ], [ 92.67956, 26.02591 ], [ 92.682774117983087, 26.024806357078099 ], [ 92.682728556000086, 26.025015942000042 ], [ 92.68244426800004, 26.026323667000046 ], [ 92.682895909741461, 26.026611075562755 ], [ 92.683181330000082, 26.026792707000023 ], [ 92.68596, 26.02576 ], [ 92.68728, 26.02343 ], [ 92.69129, 26.02282 ], [ 92.69525, 26.01915 ], [ 92.69588, 26.01951 ], [ 92.69755, 26.02047 ], [ 92.69876, 26.02038 ], [ 92.70053, 26.01957 ], [ 92.70273, 26.01856 ], [ 92.70571, 26.02013 ], [ 92.70673, 26.02066 ], [ 92.70881, 26.0184 ], [ 92.70982, 26.01932 ], [ 92.71083, 26.01929 ], [ 92.712594795000086, 26.018384504000039 ], [ 92.71274, 26.01831 ], [ 92.715959753962949, 26.021491078239666 ], [ 92.716081091000035, 26.023978471000074 ], [ 92.71472, 26.02762 ], [ 92.715947262000043, 26.02907112600008 ], [ 92.717767287000072, 26.031346158000073 ], [ 92.717241903000058, 26.033570448000035 ], [ 92.716684141000087, 26.035637449000035 ], [ 92.712797815000044, 26.038250669000035 ], [ 92.71152470800007, 26.04341010100006 ], [ 92.71323, 26.04926 ], [ 92.719591569000045, 26.057713995000025 ], [ 92.72904, 26.05877 ], [ 92.729127637000033, 26.058859942000026 ], [ 92.731737608000074, 26.061538577000078 ], [ 92.731213585000035, 26.064876407000042 ], [ 92.736227686000063, 26.073536041000068 ], [ 92.736020372000041, 26.075873772000026 ], [ 92.732569564000073, 26.080214437000048 ], [ 92.728184885000076, 26.082132173000048 ], [ 92.72704372700008, 26.085190623000074 ], [ 92.734837145000085, 26.084063102000066 ], [ 92.737432159000051, 26.084975592000031 ], [ 92.739717993000056, 26.090600421000033 ], [ 92.736101999000084, 26.097009413000016 ], [ 92.732317286000068, 26.099070364000056 ], [ 92.726011541000048, 26.098852219000033 ], [ 92.732546304000039, 26.103989817000063 ], [ 92.731148213000054, 26.109468181000071 ], [ 92.714488780000067, 26.121342074000037 ], [ 92.711197070000082, 26.125311087000057 ], [ 92.708905685000047, 26.13822330500005 ], [ 92.705994712000063, 26.141714725000039 ], [ 92.72079433800009, 26.142692872000048 ], [ 92.724066755000081, 26.144526847000058 ], [ 92.726498215000049, 26.152312603000041 ], [ 92.732615062000036, 26.144393606000051 ], [ 92.744349321000072, 26.143550518000037 ], [ 92.753563499000066, 26.139424390000048 ], [ 92.756645998000067, 26.141056006000042 ], [ 92.765045979000035, 26.147298546000062 ], [ 92.769184979000045, 26.154642820000053 ], [ 92.769274569000061, 26.160498821000036 ], [ 92.765533567000048, 26.167056476000027 ], [ 92.766399325000066, 26.177834988000026 ], [ 92.769650034000051, 26.181245141000034 ], [ 92.774276521000047, 26.183278782000063 ], [ 92.779989058000069, 26.183689959000048 ], [ 92.784788187000061, 26.185905715000047 ], [ 92.790005725000071, 26.195123228000057 ], [ 92.803284, 26.202095 ], [ 92.80202, 26.20232 ], [ 92.80047, 26.2034 ], [ 92.79608, 26.20647 ], [ 92.79831, 26.22172 ], [ 92.81094, 26.21627 ], [ 92.81958, 26.21529 ], [ 92.82782, 26.22375 ], [ 92.82658, 26.23053 ], [ 92.81799, 26.23405 ], [ 92.81705, 26.23857 ], [ 92.82066, 26.26539 ], [ 92.82314, 26.26485 ], [ 92.82351, 26.27103 ], [ 92.8266, 26.27155 ], [ 92.84015, 26.28069 ], [ 92.8439, 26.29649 ], [ 92.84897, 26.30449 ], [ 92.85524, 26.30247 ], [ 92.85661, 26.30089 ], [ 92.85544, 26.29931 ], [ 92.86217, 26.29408 ], [ 92.88019, 26.28585 ], [ 92.88311, 26.28573 ], [ 92.89454, 26.29085 ], [ 92.89688, 26.29632 ], [ 92.89473, 26.30175 ], [ 92.90061, 26.30791 ], [ 92.91566, 26.31581 ], [ 92.91845, 26.31598 ], [ 92.9218, 26.31333 ], [ 92.94282, 26.32686 ], [ 92.94635, 26.33616 ], [ 92.94213, 26.351 ], [ 92.9336, 26.35211 ], [ 92.92431, 26.35567 ], [ 92.91507, 26.35468 ], [ 92.91284, 26.35746 ], [ 92.91393, 26.3625 ], [ 92.91914, 26.36825 ], [ 92.92021, 26.37357 ], [ 92.92766, 26.38056 ], [ 92.92197, 26.38236 ], [ 92.91835, 26.37941 ], [ 92.90841, 26.37858 ], [ 92.90494, 26.38289 ], [ 92.89465, 26.38304 ], [ 92.88407, 26.37955 ], [ 92.88477, 26.38198 ], [ 92.89068, 26.38464 ], [ 92.89222, 26.38933 ], [ 92.89398, 26.38977 ], [ 92.89685, 26.387 ], [ 92.89828, 26.38836 ], [ 92.90399, 26.39941 ], [ 92.90614, 26.39934 ], [ 92.9078, 26.3936 ], [ 92.91327, 26.39607 ], [ 92.91348, 26.39251 ], [ 92.94113, 26.40209 ], [ 92.9433, 26.40212 ], [ 92.95092, 26.39651 ], [ 92.95227, 26.40379 ], [ 92.96117, 26.40925 ], [ 92.9643, 26.41375 ], [ 92.97259, 26.4157 ], [ 92.98007, 26.42148 ], [ 92.9863, 26.41849 ], [ 92.99357, 26.42029 ], [ 93.00502, 26.42592 ], [ 93.01753, 26.42106 ], [ 93.0235, 26.42159 ], [ 93.03135, 26.42426 ], [ 93.04601, 26.43763 ], [ 93.0481, 26.43467 ], [ 93.05314, 26.43412 ], [ 93.05561, 26.4244 ], [ 93.05505, 26.41958 ], [ 93.05082, 26.42105 ], [ 93.05125, 26.41479 ], [ 93.06656, 26.41676 ], [ 93.06993, 26.42403 ], [ 93.07154, 26.42313 ], [ 93.07153, 26.42032 ], [ 93.077, 26.42069 ], [ 93.08936, 26.43149 ], [ 93.09494, 26.4329 ], [ 93.09637, 26.43471 ], [ 93.09204, 26.4344 ], [ 93.07978, 26.4291 ], [ 93.07379, 26.42953 ], [ 93.07192, 26.43111 ], [ 93.07511, 26.43397 ], [ 93.08955, 26.43923 ], [ 93.10222, 26.44668 ], [ 93.10814, 26.44289 ], [ 93.10791, 26.44122 ], [ 93.10031, 26.43518 ], [ 93.101, 26.43244 ], [ 93.1102, 26.4384 ], [ 93.11761, 26.44076 ], [ 93.11521, 26.44261 ], [ 93.11286, 26.44228 ], [ 93.11252, 26.4444 ], [ 93.11432, 26.44639 ], [ 93.11278, 26.44762 ], [ 93.10972, 26.44694 ], [ 93.10828, 26.44942 ], [ 93.12253, 26.45812 ], [ 93.12465, 26.4612 ], [ 93.12708, 26.46039 ], [ 93.12792, 26.46333 ], [ 93.13025, 26.46459 ], [ 93.12415, 26.46843 ], [ 93.11342, 26.46977 ], [ 93.1142, 26.47214 ], [ 93.13373, 26.47733 ], [ 93.13923, 26.48415 ], [ 93.13892, 26.48713 ], [ 93.13125, 26.48073 ], [ 93.12961, 26.48448 ], [ 93.13405, 26.4895 ], [ 93.13113, 26.48807 ], [ 93.12513, 26.49261 ], [ 93.12834, 26.49525 ], [ 93.12722, 26.49735 ], [ 93.12014, 26.49417 ], [ 93.12368, 26.48426 ], [ 93.12302, 26.482 ], [ 93.12069, 26.48007 ], [ 93.11902, 26.48485 ], [ 93.11578, 26.48416 ], [ 93.10738, 26.47649 ], [ 93.1071, 26.47442 ], [ 93.10114, 26.47258 ], [ 93.10607, 26.47101 ], [ 93.1092, 26.46711 ], [ 93.10517, 26.46406 ], [ 93.10459, 26.46008 ], [ 93.1008, 26.46272 ], [ 93.09467, 26.45928 ], [ 93.09175, 26.45928 ], [ 93.0913, 26.46265 ], [ 93.09394, 26.46505 ], [ 93.09228, 26.46846 ], [ 93.08185, 26.4712 ], [ 93.07902, 26.46971 ], [ 93.07788, 26.47652 ], [ 93.06665, 26.4777 ], [ 93.06769, 26.4831 ], [ 93.08169, 26.48788 ], [ 93.08611, 26.49365 ], [ 93.09447, 26.4969 ], [ 93.09187, 26.50023 ], [ 93.08115, 26.49372 ], [ 93.07788, 26.49446 ], [ 93.07473, 26.49257 ], [ 93.07051, 26.50053 ], [ 93.06861, 26.49642 ], [ 93.07095, 26.49353 ], [ 93.07077, 26.48946 ], [ 93.04913, 26.48805 ], [ 93.02135, 26.47768 ], [ 93.01606, 26.47787 ], [ 93.01119, 26.4823 ], [ 93.01098, 26.48741 ], [ 93.00755, 26.49392 ], [ 93.01316, 26.49745 ], [ 93.01412, 26.50429 ], [ 93.03511, 26.51305 ], [ 93.04096, 26.51746 ], [ 93.04623, 26.52603 ], [ 93.05119, 26.52662 ], [ 93.04686, 26.53007 ], [ 93.04575, 26.53561 ], [ 93.06252, 26.54191 ], [ 93.07184, 26.54165 ], [ 93.078, 26.54308 ], [ 93.08738, 26.54191 ], [ 93.09214, 26.54355 ], [ 93.10544, 26.53787 ], [ 93.10391, 26.53411 ], [ 93.10645, 26.53106 ], [ 93.11973, 26.52925 ], [ 93.12274, 26.53252 ], [ 93.12006, 26.53625 ], [ 93.13681, 26.54089 ], [ 93.13854, 26.54747 ], [ 93.14488, 26.55391 ], [ 93.14906, 26.5556 ], [ 93.15279, 26.54959 ], [ 93.15677, 26.5477 ], [ 93.17096, 26.55366 ], [ 93.18794, 26.56766 ], [ 93.19906, 26.56592 ], [ 93.20768, 26.56159 ], [ 93.21262, 26.55623 ], [ 93.20982, 26.55141 ], [ 93.20142, 26.54298 ], [ 93.19789, 26.54045 ], [ 93.1941, 26.54198 ], [ 93.18543, 26.53865 ], [ 93.18281, 26.53482 ], [ 93.17644, 26.53074 ], [ 93.16265, 26.52456 ], [ 93.16543, 26.52186 ], [ 93.19077, 26.531 ], [ 93.19624, 26.5357 ], [ 93.20074, 26.53407 ], [ 93.20564, 26.52571 ], [ 93.20896, 26.51808 ], [ 93.21011, 26.50982 ], [ 93.21468, 26.50726 ], [ 93.21806, 26.50739 ], [ 93.21301, 26.51953 ], [ 93.21483, 26.52134 ], [ 93.2197, 26.51988 ], [ 93.22004, 26.5227 ], [ 93.21696, 26.52351 ], [ 93.21347, 26.52683 ], [ 93.214, 26.52908 ], [ 93.22065, 26.52805 ], [ 93.22294, 26.53682 ], [ 93.23235, 26.53383 ], [ 93.23615, 26.53539 ], [ 93.24643, 26.53064 ], [ 93.25047, 26.52094 ], [ 93.25888, 26.52138 ], [ 93.27465, 26.51896 ], [ 93.27316, 26.51296 ], [ 93.2683, 26.50977 ], [ 93.26804, 26.50598 ], [ 93.27644, 26.50686 ], [ 93.27477, 26.51236 ], [ 93.27829, 26.51494 ], [ 93.28591, 26.51662 ], [ 93.28803, 26.51574 ], [ 93.28691, 26.50935 ], [ 93.29025, 26.50854 ], [ 93.29384, 26.50251 ], [ 93.29829, 26.50385 ], [ 93.29885, 26.50828 ], [ 93.29392, 26.51757 ], [ 93.29082, 26.52067 ], [ 93.27961, 26.52031 ], [ 93.27485, 26.52287 ], [ 93.27107, 26.52746 ], [ 93.27644, 26.53117 ], [ 93.2778, 26.54217 ], [ 93.27503, 26.54361 ], [ 93.27234, 26.5407 ], [ 93.26758, 26.53107 ], [ 93.25962, 26.53064 ], [ 93.2592, 26.53288 ], [ 93.26582, 26.53351 ], [ 93.26455, 26.53769 ], [ 93.25546, 26.54356 ], [ 93.25191, 26.54281 ], [ 93.2506, 26.54525 ], [ 93.26086, 26.54911 ], [ 93.25931, 26.55069 ], [ 93.23979, 26.54935 ], [ 93.23842, 26.55185 ], [ 93.23939, 26.55531 ], [ 93.25067, 26.56367 ], [ 93.25264, 26.5683 ], [ 93.26335, 26.56767 ], [ 93.27546, 26.5727 ], [ 93.28681, 26.57134 ], [ 93.29634, 26.57839 ], [ 93.30317, 26.57844 ], [ 93.30509, 26.58077 ], [ 93.29513, 26.58626 ], [ 93.29465, 26.58861 ], [ 93.30104, 26.60503 ], [ 93.28709, 26.6351 ], [ 93.29133, 26.63718 ], [ 93.31002, 26.63677 ], [ 93.31526, 26.6403 ], [ 93.32017, 26.64929 ], [ 93.32107, 26.65717 ], [ 93.31168, 26.66335 ], [ 93.31032, 26.66896 ], [ 93.32038, 26.67901 ], [ 93.31767, 26.68109 ], [ 93.31755, 26.68557 ], [ 93.30955, 26.69166 ], [ 93.30792, 26.6983 ], [ 93.305003260000035, 26.697829187000025 ], [ 93.30284, 26.69748 ], [ 93.300298630000043, 26.697954270000022 ], [ 93.29716, 26.69854 ], [ 93.29089, 26.69528 ], [ 93.28909, 26.68731 ], [ 93.27448, 26.68276 ], [ 93.26518, 26.68185 ], [ 93.25064, 26.68338 ], [ 93.24556, 26.68388 ], [ 93.23817, 26.67456 ], [ 93.23378, 26.6658 ], [ 93.22988, 26.64475 ], [ 93.21956, 26.62916 ], [ 93.21685, 26.62566 ], [ 93.19437, 26.61549 ], [ 93.17239, 26.60987 ], [ 93.16584, 26.60372 ], [ 93.16077, 26.59897 ], [ 93.12312, 26.57758 ], [ 93.11417, 26.57466 ], [ 93.10607, 26.57591 ], [ 93.07307, 26.59474 ], [ 93.04033, 26.59429 ], [ 93.00777, 26.59843 ], [ 92.99864, 26.6034 ], [ 92.98933, 26.61318 ], [ 92.96959, 26.61759 ], [ 92.96443, 26.61851 ], [ 92.94302, 26.61729 ], [ 92.93519, 26.61225 ], [ 92.93211, 26.61692 ], [ 92.92811, 26.61657 ], [ 92.92721, 26.61205 ], [ 92.92973, 26.60681 ], [ 92.9227, 26.59816 ], [ 92.91813, 26.59609 ], [ 92.91277, 26.59337 ], [ 92.90706, 26.59436 ], [ 92.90676, 26.59439 ], [ 92.90478, 26.59461 ], [ 92.89677, 26.59534 ], [ 92.89501, 26.5955 ], [ 92.87883, 26.58766 ], [ 92.87295, 26.58334 ], [ 92.8644, 26.58308 ], [ 92.864, 26.58313 ], [ 92.85914, 26.58447 ], [ 92.85784, 26.58489 ], [ 92.85206, 26.58388 ], [ 92.83723, 26.57272 ], [ 92.82746, 26.56176 ], [ 92.825, 26.55626 ], [ 92.84093, 26.56196 ], [ 92.83224, 26.54875 ], [ 92.825, 26.54367 ], [ 92.82224, 26.54267 ], [ 92.82172, 26.55354 ], [ 92.81538, 26.5528 ], [ 92.81503, 26.55441 ], [ 92.79973, 26.54631 ], [ 92.79541, 26.54236 ], [ 92.77019, 26.54257 ], [ 92.77525, 26.54837 ], [ 92.77156, 26.54903 ], [ 92.76716, 26.54507 ], [ 92.76398, 26.53204 ], [ 92.75836, 26.52513 ], [ 92.75674, 26.51357 ], [ 92.75437, 26.51191 ], [ 92.74101, 26.51481 ], [ 92.72884, 26.52095 ], [ 92.7269, 26.53474 ], [ 92.72575, 26.53535 ], [ 92.71594, 26.53348 ], [ 92.71099, 26.53079 ], [ 92.70418, 26.52586 ], [ 92.69038, 26.51083 ], [ 92.68649, 26.50879 ], [ 92.68297, 26.50941 ], [ 92.67356, 26.51693 ], [ 92.6649, 26.52038 ], [ 92.64843, 26.51779 ], [ 92.64056, 26.5175 ], [ 92.60499, 26.50869 ], [ 92.58306, 26.50132 ], [ 92.57973, 26.5002 ], [ 92.57583, 26.50061 ], [ 92.56806, 26.50144 ], [ 92.55747, 26.50513 ], [ 92.52773, 26.50938 ], [ 92.49365, 26.50276 ], [ 92.48084, 26.49677 ], [ 92.47414, 26.49559 ], [ 92.46588, 26.49771 ], [ 92.4606, 26.50107 ], [ 92.45506, 26.50755 ], [ 92.45426, 26.51342 ], [ 92.45627, 26.51303 ], [ 92.46654, 26.51266 ], [ 92.46858, 26.51537 ], [ 92.46777, 26.51711 ], [ 92.44711, 26.52064 ], [ 92.42366, 26.51694 ], [ 92.42979, 26.5154 ], [ 92.43379, 26.51181 ], [ 92.43288, 26.50863 ], [ 92.43011, 26.5084 ], [ 92.4389, 26.49919 ], [ 92.44144, 26.48476 ], [ 92.43294, 26.41848 ], [ 92.44083, 26.40527 ], [ 92.50562, 26.38242 ], [ 92.52068, 26.3759 ], [ 92.55465, 26.38064 ], [ 92.56858, 26.3792 ], [ 92.57082, 26.3744 ], [ 92.58282, 26.37282 ], [ 92.5786, 26.3614 ], [ 92.57492, 26.35773 ], [ 92.57358, 26.35726 ], [ 92.56619, 26.36146 ], [ 92.56295, 26.35709 ], [ 92.5553, 26.35458 ], [ 92.55701, 26.35252 ], [ 92.55701, 26.34769 ], [ 92.55374, 26.33874 ], [ 92.53926, 26.32419 ], [ 92.53527, 26.30306 ], [ 92.54768, 26.3016 ], [ 92.54809, 26.30003 ], [ 92.55091, 26.29975 ], [ 92.55398, 26.29665 ], [ 92.55142, 26.29544 ], [ 92.54558, 26.28786 ], [ 92.54445, 26.28345 ], [ 92.54544, 26.27452 ], [ 92.54033, 26.27676 ], [ 92.52747, 26.268 ], [ 92.5217, 26.26566 ], [ 92.51654, 26.27057 ], [ 92.50555, 26.25619 ], [ 92.49436, 26.25147 ], [ 92.46978, 26.24918 ], [ 92.43723, 26.24318 ], [ 92.4314, 26.23513 ], [ 92.40618, 26.15057 ], [ 92.40319, 26.1434 ], [ 92.4013, 26.13878 ] ] ], [ [ [ 92.433540786654007, 26.11548774341825 ], [ 92.430909340000085, 26.111063863000027 ], [ 92.430621059000032, 26.110579217000065 ], [ 92.42517, 26.115 ], [ 92.43064, 26.11051 ], [ 92.43354, 26.11547 ], [ 92.433540786654007, 26.11548774341825 ] ] ] ] } },
{ "type": "Feature", "properties": { "shapeName": "Sonitpur", "shapeISO": "", "shapeID": "76128533B41005496708834", "shapeGroup": "IND", "shapeType": "ADM2" }, "geometry": { "type": "MultiPolygon", "coordinates": [ [ [ [ 92.36639, 26.93141 ], [ 92.36103, 26.92478 ], [ 92.35186, 26.90564 ], [ 92.34892, 26.89034 ], [ 92.34358, 26.88537 ], [ 92.34666, 26.87329 ], [ 92.34519, 26.86444 ], [ 92.34744, 26.86161 ], [ 92.34508, 26.85494 ], [ 92.34171, 26.85215 ], [ 92.34187, 26.84881 ], [ 92.33819, 26.84614 ], [ 92.33383, 26.83549 ], [ 92.33352, 26.83082 ], [ 92.33981, 26.8245 ], [ 92.33334, 26.8216 ], [ 92.33264, 26.81479 ], [ 92.3365, 26.81124 ], [ 92.33149, 26.80571 ], [ 92.33206, 26.80174 ], [ 92.33658, 26.79499 ], [ 92.33508, 26.79184 ], [ 92.33959, 26.78746 ], [ 92.33979, 26.78522 ], [ 92.33705, 26.78274 ], [ 92.33814, 26.77798 ], [ 92.34217, 26.77173 ], [ 92.34231, 26.77041 ], [ 92.33667, 26.77155 ], [ 92.33189, 26.77161 ], [ 92.33454, 26.76574 ], [ 92.33849, 26.76676 ], [ 92.3386, 26.76648 ], [ 92.33921, 26.7648 ], [ 92.3392, 26.76404 ], [ 92.338, 26.7628 ], [ 92.3431, 26.7574 ], [ 92.33717, 26.75548 ], [ 92.33471, 26.75837 ], [ 92.33299, 26.76016 ], [ 92.33041, 26.75383 ], [ 92.33244, 26.74535 ], [ 92.3297, 26.74103 ], [ 92.33047, 26.73857 ], [ 92.33466, 26.73548 ], [ 92.33504, 26.73593 ], [ 92.35577, 26.73182 ], [ 92.35829, 26.72755 ], [ 92.35473, 26.72697 ], [ 92.35181, 26.72833 ], [ 92.34628, 26.72398 ], [ 92.33872, 26.72736 ], [ 92.33695, 26.72677 ], [ 92.3399, 26.71329 ], [ 92.33744, 26.70612 ], [ 92.33818, 26.69796 ], [ 92.33564, 26.68873 ], [ 92.33701, 26.67408 ], [ 92.33401, 26.66963 ], [ 92.33732, 26.6655 ], [ 92.34337, 26.65964 ], [ 92.35242, 26.65681 ], [ 92.35921, 26.6602 ], [ 92.36997, 26.69982 ], [ 92.37676, 26.69925 ], [ 92.38185, 26.69416 ], [ 92.38694, 26.65737 ], [ 92.38921, 26.65228 ], [ 92.41694, 26.65002 ], [ 92.41864, 26.64379 ], [ 92.41015, 26.63134 ], [ 92.39713, 26.61946 ], [ 92.39147, 26.61889 ], [ 92.37732, 26.59172 ], [ 92.37223, 26.58437 ], [ 92.3677, 26.5838 ], [ 92.36441, 26.5829 ], [ 92.36573, 26.58077 ], [ 92.36357, 26.58088 ], [ 92.3565, 26.57456 ], [ 92.35695, 26.57192 ], [ 92.36174, 26.56898 ], [ 92.36671, 26.56834 ], [ 92.3671, 26.56829 ], [ 92.36728, 26.56807 ], [ 92.36855, 26.56649 ], [ 92.36679, 26.56155 ], [ 92.3677, 26.55794 ], [ 92.37729, 26.54361 ], [ 92.38455, 26.54866 ], [ 92.38934, 26.54518 ], [ 92.38826, 26.54105 ], [ 92.44172, 26.52828 ], [ 92.44711, 26.52064 ], [ 92.46777, 26.51711 ], [ 92.46858, 26.51537 ], [ 92.46654, 26.51266 ], [ 92.45627, 26.51303 ], [ 92.45426, 26.51342 ], [ 92.45506, 26.50755 ], [ 92.4606, 26.50107 ], [ 92.46588, 26.49771 ], [ 92.47414, 26.49559 ], [ 92.48084, 26.49677 ], [ 92.49365, 26.50276 ], [ 92.52773, 26.50938 ], [ 92.55747, 26.50513 ], [ 92.56806, 26.50144 ], [ 92.57583, 26.50061 ], [ 92.57973, 26.5002 ], [ 92.58306, 26.50132 ], [ 92.60499, 26.50869 ], [ 92.64056, 26.5175 ], [ 92.64843, 26.51779 ], [ 92.6649, 26.52038 ], [ 92.67356, 26.51693 ], [ 92.68297, 26.50941 ], [ 92.68649, 26.50879 ], [ 92.69038, 26.51083 ], [ 92.70418, 26.52586 ], [ 92.71099, 26.53079 ], [ 92.71594, 26.53348 ], [ 92.72575, 26.53535 ], [ 92.7269, 26.53474 ], [ 92.72884, 26.52095 ], [ 92.74101, 26.51481 ], [ 92.75437, 26.51191 ], [ 92.75674, 26.51357 ], [ 92.75836, 26.52513 ], [ 92.76398, 26.53204 ], [ 92.76716, 26.54507 ], [ 92.77156, 26.54903 ], [ 92.77525, 26.54837 ], [ 92.77019, 26.54257 ], [ 92.79541, 26.54236 ], [ 92.79973, 26.54631 ], [ 92.81503, 26.55441 ], [ 92.81538, 26.5528 ], [ 92.82172, 26.55354 ], [ 92.82224, 26.54267 ], [ 92.825, 26.54367 ], [ 92.83224, 26.54875 ], [ 92.84093, 26.56196 ], [ 92.825, 26.55626 ], [ 92.82746, 26.56176 ], [ 92.83723, 26.57272 ], [ 92.85206, 26.58388 ], [ 92.85784, 26.58489 ], [ 92.85914, 26.58447 ], [ 92.864, 26.58313 ], [ 92.8644, 26.58308 ], [ 92.87295, 26.58334 ], [ 92.87883, 26.58766 ], [ 92.89501, 26.5955 ], [ 92.89677, 26.59534 ], [ 92.90478, 26.59461 ], [ 92.90676, 26.59439 ], [ 92.90706, 26.59436 ], [ 92.91277, 26.59337 ], [ 92.91813, 26.59609 ], [ 92.9227, 26.59816 ], [ 92.92973, 26.60681 ], [ 92.92721, 26.61205 ], [ 92.92811, 26.61657 ], [ 92.93211, 26.61692 ], [ 92.93519, 26.61225 ], [ 92.94302, 26.61729 ], [ 92.96443, 26.61851 ], [ 92.96959, 26.61759 ], [ 92.98933, 26.61318 ], [ 92.99864, 26.6034 ], [ 93.00777, 26.59843 ], [ 93.04033, 26.59429 ], [ 93.07307, 26.59474 ], [ 93.10607, 26.57591 ], [ 93.11417, 26.57466 ], [ 93.12312, 26.57758 ], [ 93.16077, 26.59897 ], [ 93.160766090000038, 26.598990266000047 ], [ 93.159989969000037, 26.600124013000023 ], [ 93.155689519000092, 26.60656112200007 ], [ 93.158288798000058, 26.606820886000037 ], [ 93.157997935000083, 26.613685342000057 ], [ 93.150929219000034, 26.642589955000059 ], [ 93.147829914000056, 26.649354896000027 ], [ 93.131796834000056, 26.669666991000046 ], [ 93.108340050000038, 26.680287663000055 ], [ 93.10106290300007, 26.705578227000043 ], [ 93.09318348100004, 26.713290668000067 ], [ 93.089438028000075, 26.721355270000053 ], [ 93.083735985000033, 26.74191465500007 ], [ 93.083482924000066, 26.748202688000042 ], [ 93.086832952000066, 26.757200831000034 ], [ 93.080281772000035, 26.791696622000075 ], [ 93.080314646000033, 26.805799988000047 ], [ 93.07867286000004, 26.813928673000074 ], [ 93.062008300000059, 26.832774692000033 ], [ 93.06125002400006, 26.840163645000079 ], [ 93.065148450000038, 26.842415989000074 ], [ 93.074997557000074, 26.853075661000055 ], [ 93.079174322000085, 26.863033984000019 ], [ 93.063272235000056, 26.912245471000059 ], [ 93.062438523000083, 26.91972730600002 ], [ 93.03933, 26.91583 ], [ 93.02053, 26.9148 ], [ 92.99863, 26.92836 ], [ 92.98396, 26.93397 ], [ 92.98193, 26.93365 ], [ 92.97422, 26.93887 ], [ 92.95266, 26.94699 ], [ 92.91913, 26.96236 ], [ 92.91631, 26.9679 ], [ 92.91807, 26.98279 ], [ 92.9012, 26.99444 ], [ 92.87392, 27.00592 ], [ 92.83814, 27.01181 ], [ 92.7869, 27.02901 ], [ 92.77074, 27.03138 ], [ 92.71537, 27.0245 ], [ 92.68413, 27.03018 ], [ 92.66071, 27.03699 ], [ 92.6588, 27.03606 ], [ 92.65227, 27.02325 ], [ 92.64087, 27.01701 ], [ 92.64638, 27.00851 ], [ 92.64718, 26.9859 ], [ 92.58687, 26.96079 ], [ 92.56268, 26.95824 ], [ 92.55539, 26.95761 ], [ 92.54214, 26.96019 ], [ 92.53358, 26.96186 ], [ 92.51728, 26.96299 ], [ 92.51264, 26.96405 ], [ 92.50687, 26.96536 ], [ 92.49251, 26.96333 ], [ 92.46147, 26.96194 ], [ 92.44807, 26.95928 ], [ 92.44408, 26.95366 ], [ 92.42768, 26.94212 ], [ 92.41381, 26.94285 ], [ 92.40166, 26.92495 ], [ 92.36924, 26.93025 ], [ 92.36639, 26.93141 ] ] ] ] } },
{ "type": "Feature", "properties": { "shapeName": "Golaghat", "shapeISO": "", "shapeID": "76128533B55519385298440", "shapeGroup": "IND", "shapeType": "ADM2" }, "geometry": { "type": "MultiPolygon", "coordinates": [ [ [ [ 93.77179, 25.96216 ], [ 93.78393, 25.95442 ], [ 93.78535, 25.95034 ], [ 93.78815, 25.94869 ], [ 93.78792, 25.94512 ], [ 93.78562, 25.94359 ], [ 93.7894, 25.94029 ], [ 93.79198, 25.93283 ], [ 93.78784, 25.92832 ], [ 93.7919, 25.92707 ], [ 93.79094, 25.9186 ], [ 93.79496, 25.91425 ], [ 93.79698, 25.90575 ], [ 93.79377, 25.8941 ], [ 93.7905, 25.89097 ], [ 93.78626, 25.87487 ], [ 93.79043, 25.86575 ], [ 93.78438, 25.86295 ], [ 93.78379, 25.85925 ], [ 93.78068, 25.85608 ], [ 93.7824, 25.84601 ], [ 93.7784, 25.84236 ], [ 93.78732, 25.82204 ], [ 93.78986, 25.81204 ], [ 93.79429, 25.81035 ], [ 93.8061, 25.81233 ], [ 93.81011, 25.81725 ], [ 93.81735, 25.82219 ], [ 93.82282, 25.84306 ], [ 93.8313, 25.85221 ], [ 93.84087, 25.85855 ], [ 93.85023, 25.85889 ], [ 93.86722, 25.85129 ], [ 93.87211, 25.84678 ], [ 93.88118, 25.84177 ], [ 93.88702, 25.84831 ], [ 93.89188, 25.86065 ], [ 93.89708, 25.85959 ], [ 93.90032, 25.86686 ], [ 93.91232, 25.87759 ], [ 93.91438, 25.88347 ], [ 93.93308, 25.8872 ], [ 93.93865, 25.89673 ], [ 93.94681, 25.89696 ], [ 93.9583, 25.90099 ], [ 93.96762, 25.90715 ], [ 93.97044, 25.91326 ], [ 93.97783, 25.91538 ], [ 93.98112, 25.92199 ], [ 93.96959, 25.9406 ], [ 93.96773, 25.95659 ], [ 93.95456, 25.96999 ], [ 93.95918, 25.99281 ], [ 93.95757, 25.99827 ], [ 93.95349, 26.00315 ], [ 93.96128, 26.01797 ], [ 93.96175, 26.02917 ], [ 93.96452, 26.03822 ], [ 93.97126, 26.04077 ], [ 93.97314, 26.04797 ], [ 93.98977, 26.06843 ], [ 93.98469, 26.07939 ], [ 93.9851, 26.08411 ], [ 93.98966, 26.0853 ], [ 93.99117, 26.08859 ], [ 93.99282, 26.1019 ], [ 93.99827, 26.10428 ], [ 94.00086, 26.10719 ], [ 94.00084, 26.11067 ], [ 93.99368, 26.11152 ], [ 93.98997, 26.11395 ], [ 93.9952, 26.1182 ], [ 93.99533, 26.12397 ], [ 93.99705, 26.12681 ], [ 93.98949, 26.12972 ], [ 93.99195, 26.13323 ], [ 93.99841, 26.13232 ], [ 94.00396, 26.13769 ], [ 94.00511, 26.14306 ], [ 93.99843, 26.15408 ], [ 94.00312, 26.15992 ], [ 94.00359, 26.16912 ], [ 94.0118, 26.18213 ], [ 94.02073, 26.1873 ], [ 94.02541, 26.19298 ], [ 94.03452, 26.199 ], [ 94.03543, 26.21187 ], [ 94.03928, 26.21933 ], [ 94.03701, 26.22534 ], [ 94.04062, 26.22972 ], [ 94.04798, 26.24603 ], [ 94.0517, 26.25161 ], [ 94.06348, 26.25758 ], [ 94.06929, 26.25582 ], [ 94.07486, 26.26503 ], [ 94.07667, 26.27114 ], [ 94.07568, 26.281 ], [ 94.07893, 26.28461 ], [ 94.08332, 26.28439 ], [ 94.08608, 26.28621 ], [ 94.08915, 26.29291 ], [ 94.09694, 26.29872 ], [ 94.10155, 26.30446 ], [ 94.10337, 26.31781 ], [ 94.10693, 26.32217 ], [ 94.11728, 26.31848 ], [ 94.12758, 26.31898 ], [ 94.11824, 26.32625 ], [ 94.11825, 26.32946 ], [ 94.13453, 26.33396 ], [ 94.13765, 26.33728 ], [ 94.14152, 26.33786 ], [ 94.1427, 26.33592 ], [ 94.1411, 26.33176 ], [ 94.14556, 26.33113 ], [ 94.14817, 26.33479 ], [ 94.16337, 26.33502 ], [ 94.17099, 26.34007 ], [ 94.17435, 26.33988 ], [ 94.17885, 26.34978 ], [ 94.17419, 26.3508 ], [ 94.16652, 26.349 ], [ 94.15785, 26.35068 ], [ 94.13688, 26.35013 ], [ 94.11715, 26.39994 ], [ 94.11843, 26.42747 ], [ 94.12998, 26.44512 ], [ 94.12603, 26.45403 ], [ 94.10629, 26.4667 ], [ 94.10323, 26.47114 ], [ 94.10297, 26.48009 ], [ 94.09813, 26.49173 ], [ 94.10536, 26.50534 ], [ 94.10698, 26.51116 ], [ 94.10577, 26.51982 ], [ 94.11107, 26.52685 ], [ 94.11236, 26.53049 ], [ 94.1117, 26.53978 ], [ 94.11546, 26.5437 ], [ 94.11013, 26.55073 ], [ 94.11643, 26.55439 ], [ 94.1161, 26.55611 ], [ 94.11319, 26.55846 ], [ 94.10747, 26.56928 ], [ 94.10251, 26.5696 ], [ 94.10044, 26.57128 ], [ 94.10118, 26.57624 ], [ 94.0917, 26.57975 ], [ 94.08774, 26.5759 ], [ 94.07954, 26.57485 ], [ 94.07766, 26.57757 ], [ 94.08132, 26.58709 ], [ 94.0793, 26.58999 ], [ 94.07337, 26.59035 ], [ 94.07243, 26.59692 ], [ 94.08561, 26.60936 ], [ 94.08123, 26.61199 ], [ 94.07991, 26.615 ], [ 94.08841, 26.62192 ], [ 94.08681, 26.62681 ], [ 94.08378, 26.62618 ], [ 94.08333, 26.62795 ], [ 94.08492, 26.63252 ], [ 94.09587, 26.64544 ], [ 94.08844, 26.64771 ], [ 94.08656, 26.64986 ], [ 94.08685, 26.65543 ], [ 94.07176, 26.6673 ], [ 94.06957, 26.667 ], [ 94.06668, 26.6716 ], [ 94.06476, 26.67177 ], [ 94.06714, 26.66639 ], [ 94.06486, 26.66296 ], [ 94.06151, 26.66554 ], [ 94.05851, 26.6613 ], [ 94.05594, 26.66671 ], [ 94.05767, 26.67035 ], [ 94.05488, 26.67708 ], [ 94.05041, 26.67309 ], [ 94.04885, 26.67565 ], [ 94.04729, 26.6808 ], [ 94.05133, 26.68329 ], [ 94.05085, 26.68598 ], [ 94.04462, 26.68854 ], [ 94.04539, 26.69582 ], [ 94.0383, 26.70861 ], [ 94.04397, 26.71274 ], [ 94.04186, 26.72126 ], [ 94.04786, 26.72864 ], [ 94.0425, 26.72913 ], [ 94.04759, 26.7339 ], [ 94.04821, 26.73932 ], [ 94.0422, 26.73624 ], [ 94.04051, 26.74282 ], [ 94.03541, 26.73754 ], [ 94.03098, 26.74157 ], [ 94.02206, 26.7416 ], [ 94.02415, 26.74725 ], [ 94.01159, 26.7485 ], [ 94.00282, 26.74662 ], [ 94.00184, 26.76256 ], [ 93.99853, 26.76677 ], [ 93.998464866000063, 26.766766694000065 ], [ 93.991239940000071, 26.766400218000054 ], [ 93.97003, 26.75153 ], [ 93.94648, 26.74089 ], [ 93.917357529000071, 26.733817282000071 ], [ 93.917349823000052, 26.733805519000043 ], [ 93.89598, 26.72532 ], [ 93.87699, 26.72305 ], [ 93.81661, 26.75115 ], [ 93.79193, 26.75412 ], [ 93.774784024000041, 26.769623943000056 ], [ 93.772355545000039, 26.771776460000073 ], [ 93.76443, 26.77835 ], [ 93.764037126000062, 26.780615969000049 ], [ 93.763937459000033, 26.781190815000052 ], [ 93.763444099000083, 26.784036357000044 ], [ 93.75416, 26.7794 ], [ 93.74027, 26.77979 ], [ 93.7281, 26.77523 ], [ 93.70361, 26.77024 ], [ 93.68742, 26.7715 ], [ 93.67413, 26.7747 ], [ 93.64892, 26.78594 ], [ 93.64847, 26.78297 ], [ 93.66517, 26.76451 ], [ 93.67991, 26.74511 ], [ 93.69383, 26.73174 ], [ 93.68051, 26.72292 ], [ 93.68276, 26.706 ], [ 93.67474, 26.70815 ], [ 93.67248, 26.71377 ], [ 93.67223, 26.71286 ], [ 93.66564, 26.71417 ], [ 93.65012, 26.70511 ], [ 93.63785, 26.70651 ], [ 93.61889, 26.71258 ], [ 93.56612, 26.72401 ], [ 93.56046, 26.72801 ], [ 93.56284, 26.73633 ], [ 93.55408, 26.73759 ], [ 93.54567, 26.74213 ], [ 93.53448, 26.75393 ], [ 93.52259, 26.75543 ], [ 93.50975, 26.76054 ], [ 93.49295, 26.75715 ], [ 93.47153, 26.75915 ], [ 93.46122, 26.75711 ], [ 93.44963, 26.75143 ], [ 93.44388, 26.74617 ], [ 93.43223, 26.74468 ], [ 93.42158, 26.74662 ], [ 93.41443, 26.74072 ], [ 93.40675, 26.73946 ], [ 93.37567, 26.74343 ], [ 93.37264, 26.74278 ], [ 93.35803, 26.73767 ], [ 93.34796, 26.73173 ], [ 93.34266, 26.72331 ], [ 93.34073, 26.71546 ], [ 93.33637, 26.70764 ], [ 93.32369, 26.7063 ], [ 93.31954, 26.70261 ], [ 93.30792, 26.6983 ], [ 93.30955, 26.69166 ], [ 93.31755, 26.68557 ], [ 93.31767, 26.68109 ], [ 93.32038, 26.67901 ], [ 93.31032, 26.66896 ], [ 93.31168, 26.66335 ], [ 93.32107, 26.65717 ], [ 93.32017, 26.64929 ], [ 93.31526, 26.6403 ], [ 93.31002, 26.63677 ], [ 93.29133, 26.63718 ], [ 93.28709, 26.6351 ], [ 93.30104, 26.60503 ], [ 93.29465, 26.58861 ], [ 93.29513, 26.58626 ], [ 93.30509, 26.58077 ], [ 93.30317, 26.57844 ], [ 93.29892, 26.57484 ], [ 93.29965, 26.57402 ], [ 93.32042, 26.58246 ], [ 93.36823, 26.58157 ], [ 93.37899, 26.57817 ], [ 93.3913, 26.57801 ], [ 93.40173, 26.55034 ], [ 93.4109, 26.55712 ], [ 93.5032, 26.57407 ], [ 93.52718, 26.58308 ], [ 93.56737, 26.58056 ], [ 93.58747, 26.56704 ], [ 93.60433, 26.56947 ], [ 93.62082, 26.56424 ], [ 93.62254, 26.56424 ], [ 93.6238, 26.56668 ], [ 93.62893, 26.58227 ], [ 93.63191, 26.58434 ], [ 93.65805, 26.59272 ], [ 93.66976, 26.59489 ], [ 93.68166, 26.59543 ], [ 93.69554, 26.59272 ], [ 93.71808, 26.59146 ], [ 93.73364, 26.59371 ], [ 93.73851, 26.58561 ], [ 93.74268, 26.5833 ], [ 93.75021, 26.5823 ], [ 93.75222, 26.57912 ], [ 93.7516, 26.5772 ], [ 93.74053, 26.56983 ], [ 93.74232, 26.56283 ], [ 93.73982, 26.55907 ], [ 93.73877, 26.56118 ], [ 93.73726, 26.55996 ], [ 93.73793, 26.55652 ], [ 93.73591, 26.54983 ], [ 93.73976, 26.54677 ], [ 93.74107, 26.54351 ], [ 93.74021, 26.54056 ], [ 93.73499, 26.54084 ], [ 93.73451, 26.53773 ], [ 93.7376, 26.53456 ], [ 93.74267, 26.5379 ], [ 93.7471, 26.52851 ], [ 93.75108, 26.5311 ], [ 93.75883, 26.52739 ], [ 93.75824, 26.52279 ], [ 93.75515, 26.52028 ], [ 93.75557, 26.51649 ], [ 93.75833, 26.51491 ], [ 93.75632, 26.51184 ], [ 93.75821, 26.50727 ], [ 93.766, 26.50679 ], [ 93.767, 26.50203 ], [ 93.77588, 26.4877 ], [ 93.77909, 26.47953 ], [ 93.77904, 26.47688 ], [ 93.7769, 26.4749 ], [ 93.77247, 26.47789 ], [ 93.77244, 26.47502 ], [ 93.77844, 26.46795 ], [ 93.7874, 26.46358 ], [ 93.78718, 26.45415 ], [ 93.79098, 26.4504 ], [ 93.79324, 26.44112 ], [ 93.78739, 26.44019 ], [ 93.78531, 26.43797 ], [ 93.78637, 26.43454 ], [ 93.79336, 26.43519 ], [ 93.79483, 26.42998 ], [ 93.78858, 26.42479 ], [ 93.78229, 26.42264 ], [ 93.78494, 26.41324 ], [ 93.79713, 26.41 ], [ 93.80126, 26.41028 ], [ 93.79838, 26.40599 ], [ 93.79255, 26.40299 ], [ 93.79046, 26.39716 ], [ 93.78622, 26.39446 ], [ 93.78006, 26.38668 ], [ 93.77714, 26.38717 ], [ 93.77582, 26.3841 ], [ 93.77838, 26.3831 ], [ 93.78802, 26.38948 ], [ 93.79919, 26.3801 ], [ 93.81398, 26.37866 ], [ 93.82263, 26.38118 ], [ 93.82732, 26.38875 ], [ 93.83561, 26.39705 ], [ 93.84066, 26.39849 ], [ 93.8594, 26.37866 ], [ 93.88769, 26.37205 ], [ 93.89347, 26.37251 ], [ 93.88914, 26.36591 ], [ 93.88465, 26.36327 ], [ 93.88754, 26.36147 ], [ 93.8877, 26.35704 ], [ 93.8848, 26.35602 ], [ 93.88889, 26.34682 ], [ 93.88482, 26.34678 ], [ 93.88416, 26.34211 ], [ 93.8904, 26.34229 ], [ 93.88886, 26.33347 ], [ 93.89169, 26.333 ], [ 93.89463, 26.33725 ], [ 93.89834, 26.32278 ], [ 93.89762, 26.31196 ], [ 93.88392, 26.26834 ], [ 93.86589, 26.22904 ], [ 93.85039, 26.20344 ], [ 93.83849, 26.13891 ], [ 93.82948, 26.11259 ], [ 93.81434, 26.08266 ], [ 93.80388, 26.05346 ], [ 93.80424, 26.03003 ], [ 93.79487, 26.02065 ], [ 93.79745, 26.00268 ], [ 93.80102, 26.00323 ], [ 93.80643, 25.99498 ], [ 93.80007, 25.99805 ], [ 93.79808, 25.9933 ], [ 93.79424, 25.99196 ], [ 93.7964, 25.9811 ], [ 93.799, 25.98008 ], [ 93.80397, 25.98477 ], [ 93.8053, 25.98287 ], [ 93.80314, 25.97682 ], [ 93.79687, 25.9762 ], [ 93.79256, 25.9783 ], [ 93.79291, 25.97421 ], [ 93.78929, 25.97367 ], [ 93.78622, 25.97889 ], [ 93.78286, 25.98019 ], [ 93.77808, 25.96732 ], [ 93.77586, 25.96795 ], [ 93.77182, 25.96653 ], [ 93.76842, 25.96328 ], [ 93.77179, 25.96216 ] ] ] ] } },
{ "type": "Feature", "properties": { "shapeName": "Jorhat", "shapeISO": "", "shapeID": "76128533B334793883930", "shapeGroup": "IND", "shapeType": "ADM2" }, "geometry": { "type": "MultiPolygon", "coordinates": [ [ [ [ 94.402420590000077, 26.94774520600004 ], [ 94.400888669000039, 26.951810402000028 ], [ 94.400521295000033, 26.956351451000042 ], [ 94.389331346000077, 26.94100032700004 ], [ 94.381500713000037, 26.940352435000023 ], [ 94.377338648000034, 26.93757772400005 ], [ 94.371896029000084, 26.92189014000007 ], [ 94.360744715000067, 26.909615397000039 ], [ 94.353870392000033, 26.904341340000027 ], [ 94.32501727600004, 26.892767703000057 ], [ 94.303855181000074, 26.887811780000046 ], [ 94.298560858000087, 26.881529808000039 ], [ 94.296578647000061, 26.871672034000028 ], [ 94.293703807000043, 26.874559730000048 ], [ 94.281087515000081, 26.871598750000032 ], [ 94.263667661000056, 26.870628036000024 ], [ 94.235677792000047, 26.87074564500006 ], [ 94.224152555000046, 26.872274505000057 ], [ 94.206968784000082, 26.869782686000068 ], [ 94.188379288000078, 26.860567451000065 ], [ 94.170743358000038, 26.854370965000044 ], [ 94.122890234000081, 26.846749436000039 ], [ 94.073318639000036, 26.845969585000034 ], [ 94.034288750000087, 26.837221511000052 ], [ 94.015279439000039, 26.830697634000046 ], [ 94.013121383000055, 26.818793864000039 ], [ 94.007602526000085, 26.808807881000067 ], [ 94.002872521000086, 26.792005374000038 ], [ 93.993822793000064, 26.784392128000039 ], [ 93.990366961000078, 26.777944956000052 ], [ 93.996598479000056, 26.770836743000068 ], [ 93.991451113000039, 26.766710992000068 ], [ 93.991239940000071, 26.766400218000054 ], [ 93.998464866000063, 26.766766694000065 ], [ 93.99853, 26.76677 ], [ 94.00184, 26.76256 ], [ 94.00282, 26.74662 ], [ 94.01159, 26.7485 ], [ 94.02415, 26.74725 ], [ 94.02206, 26.7416 ], [ 94.03098, 26.74157 ], [ 94.03541, 26.73754 ], [ 94.04051, 26.74282 ], [ 94.0422, 26.73624 ], [ 94.04821, 26.73932 ], [ 94.04759, 26.7339 ], [ 94.0425, 26.72913 ], [ 94.04786, 26.72864 ], [ 94.04186, 26.72126 ], [ 94.04397, 26.71274 ], [ 94.0383, 26.70861 ], [ 94.04539, 26.69582 ], [ 94.04462, 26.68854 ], [ 94.05085, 26.68598 ], [ 94.05133, 26.68329 ], [ 94.04729, 26.6808 ], [ 94.04885, 26.67565 ], [ 94.05041, 26.67309 ], [ 94.05488, 26.67708 ], [ 94.05767, 26.67035 ], [ 94.05594, 26.66671 ], [ 94.05851, 26.6613 ], [ 94.06151, 26.66554 ], [ 94.06486, 26.66296 ], [ 94.06714, 26.66639 ], [ 94.06476, 26.67177 ], [ 94.06668, 26.6716 ], [ 94.06957, 26.667 ], [ 94.07176, 26.6673 ], [ 94.08685, 26.65543 ], [ 94.08656, 26.64986 ], [ 94.08844, 26.64771 ], [ 94.09587, 26.64544 ], [ 94.08492, 26.63252 ], [ 94.08333, 26.62795 ], [ 94.08378, 26.62618 ], [ 94.08681, 26.62681 ], [ 94.08841, 26.62192 ], [ 94.07991, 26.615 ], [ 94.08123, 26.61199 ], [ 94.08561, 26.60936 ], [ 94.07243, 26.59692 ], [ 94.07337, 26.59035 ], [ 94.0793, 26.58999 ], [ 94.08132, 26.58709 ], [ 94.07766, 26.57757 ], [ 94.07954, 26.57485 ], [ 94.08774, 26.5759 ], [ 94.0917, 26.57975 ], [ 94.10118, 26.57624 ], [ 94.10044, 26.57128 ], [ 94.10251, 26.5696 ], [ 94.10747, 26.56928 ], [ 94.11319, 26.55846 ], [ 94.1161, 26.55611 ], [ 94.11643, 26.55439 ], [ 94.11013, 26.55073 ], [ 94.11546, 26.5437 ], [ 94.1117, 26.53978 ], [ 94.11236, 26.53049 ], [ 94.11107, 26.52685 ], [ 94.10577, 26.51982 ], [ 94.10698, 26.51116 ], [ 94.10536, 26.50534 ], [ 94.09813, 26.49173 ], [ 94.10297, 26.48009 ], [ 94.10323, 26.47114 ], [ 94.10629, 26.4667 ], [ 94.12603, 26.45403 ], [ 94.12998, 26.44512 ], [ 94.11843, 26.42747 ], [ 94.11715, 26.39994 ], [ 94.13688, 26.35013 ], [ 94.15785, 26.35068 ], [ 94.16652, 26.349 ], [ 94.16335, 26.35582 ], [ 94.17246, 26.36327 ], [ 94.17449, 26.36744 ], [ 94.17293, 26.37352 ], [ 94.17799, 26.38442 ], [ 94.17585, 26.39527 ], [ 94.17577, 26.40915 ], [ 94.17298, 26.41663 ], [ 94.17548, 26.42381 ], [ 94.17472, 26.42755 ], [ 94.18556, 26.45626 ], [ 94.20011, 26.46563 ], [ 94.21051, 26.48558 ], [ 94.22264, 26.49629 ], [ 94.23891, 26.50713 ], [ 94.25108, 26.52342 ], [ 94.25236, 26.52822 ], [ 94.26161, 26.53963 ], [ 94.28133, 26.5592 ], [ 94.28884, 26.55977 ], [ 94.28795, 26.55555 ], [ 94.28435, 26.55389 ], [ 94.28387, 26.55101 ], [ 94.28462, 26.52972 ], [ 94.28806, 26.52079 ], [ 94.28619, 26.50412 ], [ 94.29283, 26.4763 ], [ 94.30217, 26.46281 ], [ 94.30984, 26.46157 ], [ 94.31535, 26.45843 ], [ 94.32314, 26.4662 ], [ 94.32276, 26.47488 ], [ 94.32818, 26.47933 ], [ 94.3358, 26.4803 ], [ 94.35093, 26.49121 ], [ 94.35069, 26.49467 ], [ 94.35429, 26.49881 ], [ 94.34999, 26.5041 ], [ 94.35347, 26.50576 ], [ 94.35762, 26.50461 ], [ 94.36811, 26.50544 ], [ 94.37648, 26.50855 ], [ 94.37577, 26.51861 ], [ 94.37715, 26.5207 ], [ 94.39028, 26.52825 ], [ 94.39296, 26.52805 ], [ 94.39542, 26.52515 ], [ 94.39832, 26.52773 ], [ 94.39778, 26.52996 ], [ 94.40135, 26.53421 ], [ 94.4002, 26.5395 ], [ 94.40156, 26.54228 ], [ 94.40681, 26.54511 ], [ 94.40652, 26.5478 ], [ 94.40368, 26.55065 ], [ 94.40499, 26.5528 ], [ 94.41084, 26.55386 ], [ 94.40947, 26.55602 ], [ 94.40666, 26.55685 ], [ 94.41376, 26.57871 ], [ 94.40497, 26.5974 ], [ 94.40755, 26.60527 ], [ 94.40685, 26.60981 ], [ 94.40886, 26.61191 ], [ 94.43347, 26.62081 ], [ 94.45349, 26.63443 ], [ 94.45577, 26.63205 ], [ 94.46145, 26.63086 ], [ 94.46376, 26.6341 ], [ 94.46064, 26.63924 ], [ 94.45756, 26.65077 ], [ 94.46353, 26.66294 ], [ 94.46694, 26.66523 ], [ 94.48475, 26.66909 ], [ 94.49177, 26.66762 ], [ 94.49724, 26.66908 ], [ 94.50612, 26.67834 ], [ 94.51448, 26.68264 ], [ 94.51867, 26.68995 ], [ 94.51909, 26.6968 ], [ 94.52173, 26.69972 ], [ 94.52673, 26.69661 ], [ 94.53985, 26.70495 ], [ 94.54404, 26.70621 ], [ 94.56238, 26.70264 ], [ 94.56367, 26.70127 ], [ 94.56188, 26.68589 ], [ 94.57361, 26.68626 ], [ 94.57043, 26.69146 ], [ 94.58173, 26.70081 ], [ 94.58431, 26.69853 ], [ 94.59133, 26.69793 ], [ 94.59384, 26.70176 ], [ 94.5951, 26.7134 ], [ 94.59725, 26.71515 ], [ 94.60265, 26.71137 ], [ 94.60359, 26.71241 ], [ 94.60211, 26.71901 ], [ 94.59227, 26.72137 ], [ 94.59414, 26.72513 ], [ 94.58474, 26.7258 ], [ 94.58128, 26.73232 ], [ 94.58296, 26.73574 ], [ 94.57241, 26.74338 ], [ 94.5746, 26.75198 ], [ 94.56894, 26.75077 ], [ 94.56585, 26.74848 ], [ 94.55773, 26.76055 ], [ 94.53955, 26.77354 ], [ 94.51995, 26.81817 ], [ 94.50649, 26.84202 ], [ 94.50366, 26.85619 ], [ 94.49649, 26.87066 ], [ 94.48253, 26.88181 ], [ 94.46198, 26.89113 ], [ 94.44734, 26.90282 ], [ 94.42668, 26.92443 ], [ 94.41661, 26.94342 ], [ 94.4112, 26.94225 ], [ 94.40689, 26.94358 ], [ 94.402420590000077, 26.94774520600004 ] ] ] ] } },
{ "type": "Feature", "properties": { "shapeName": "Majuli", "shapeISO": "", "shapeID": "76128533B15157901669242", "shapeGroup": "IND", "shapeType": "ADM2" }, "geometry": { "type": "MultiPolygon", "coordinates": [ [ [ [ 94.538132346000054, 27.068837359000035 ], [ 94.544507206000048, 27.073968344000033 ], [ 94.548269729000083, 27.082147742000075 ], [ 94.548595319000071, 27.083313011000026 ], [ 94.55107, 27.09323 ], [ 94.553584065000052, 27.095179757000036 ], [ 94.557430654000086, 27.098506536000055 ], [ 94.563712803000058, 27.100804883000023 ], [ 94.56929, 27.11052 ], [ 94.57241, 27.11314 ], [ 94.594327669000052, 27.133776883000056 ], [ 94.59448, 27.13392 ], [ 94.59356, 27.13685 ], [ 94.59262, 27.13971 ], [ 94.57838, 27.1814 ], [ 94.57459, 27.19963 ], [ 94.55408, 27.21862 ], [ 94.54966, 27.2202 ], [ 94.547597745000076, 27.220945467000028 ], [ 94.54291, 27.22264 ], [ 94.54274, 27.22254 ], [ 94.53887, 27.21825 ], [ 94.53884, 27.21577 ], [ 94.546726914000033, 27.210421692000072 ], [ 94.54669, 27.20764 ], [ 94.535521892000077, 27.200950877000018 ], [ 94.53373, 27.19695 ], [ 94.53403, 27.19292 ], [ 94.5474, 27.1838 ], [ 94.54803, 27.17915 ], [ 94.53027, 27.17161 ], [ 94.52607, 27.16794 ], [ 94.51964, 27.15285 ], [ 94.51544, 27.14918 ], [ 94.51361, 27.1418 ], [ 94.51184, 27.1401 ], [ 94.50835, 27.12047 ], [ 94.50329, 27.12013 ], [ 94.49306, 27.12261 ], [ 94.49038, 27.12726 ], [ 94.49012, 27.1333 ], [ 94.48339, 27.13769 ], [ 94.47766, 27.13538 ], [ 94.47389, 27.13138 ], [ 94.47391, 27.12208 ], [ 94.46985, 27.11433 ], [ 94.46182, 27.11159 ], [ 94.45711, 27.11492 ], [ 94.4459, 27.11662 ], [ 94.44104, 27.11831 ], [ 94.43812, 27.11932 ], [ 94.43176, 27.11689 ], [ 94.42718, 27.1123 ], [ 94.42762, 27.1 ], [ 94.42415, 27.09532 ], [ 94.41759, 27.09091 ], [ 94.39212, 27.09765 ], [ 94.38321, 27.09537 ], [ 94.36714, 27.09772 ], [ 94.35818, 27.09267 ], [ 94.35174, 27.08574 ], [ 94.34537, 27.08272 ], [ 94.33703, 27.08121 ], [ 94.32374, 27.08751 ], [ 94.31612, 27.07284 ], [ 94.31274, 27.07006 ], [ 94.30746, 27.07242 ], [ 94.30248, 27.08018 ], [ 94.296350138000037, 27.085875980000026 ], [ 94.295806204000087, 27.086151305000048 ], [ 94.28598, 27.09113 ], [ 94.28115, 27.09527 ], [ 94.2661, 27.09228 ], [ 94.25335, 27.08503 ], [ 94.23808, 27.07334 ], [ 94.23037, 27.05945 ], [ 94.2232, 27.03814 ], [ 94.22575, 27.03567 ], [ 94.2244, 27.03195 ], [ 94.21875, 27.03016 ], [ 94.20242, 27.02909 ], [ 94.19445, 27.03723 ], [ 94.18981, 27.0358 ], [ 94.18676, 27.0282 ], [ 94.19154, 27.01608 ], [ 94.19187, 27.01091 ], [ 94.18565, 27.00059 ], [ 94.18087, 26.99725 ], [ 94.17806, 26.99938 ], [ 94.17445, 26.99948 ], [ 94.16982, 26.99736 ], [ 94.1634, 26.99933 ], [ 94.15859, 26.99906 ], [ 94.15424, 26.99387 ], [ 94.13724, 26.98957 ], [ 94.14013, 26.97633 ], [ 94.1386, 26.97233 ], [ 94.13391, 26.96935 ], [ 94.11893, 26.97072 ], [ 94.11024, 26.96997 ], [ 94.10928, 26.97769 ], [ 94.10315, 26.9868 ], [ 94.09343, 26.99513 ], [ 94.0832, 26.99918 ], [ 94.07226, 26.9907 ], [ 94.0685, 26.98441 ], [ 94.06718, 26.97801 ], [ 94.05985, 26.98041 ], [ 94.05277, 26.97933 ], [ 94.04352, 26.97392 ], [ 94.04075, 26.96772 ], [ 94.02756, 26.95636 ], [ 94.02656, 26.94738 ], [ 94.02913, 26.93475 ], [ 94.02557, 26.9301 ], [ 94.01251, 26.92767 ], [ 94.007012878000069, 26.934716967000039 ], [ 94.006892981000078, 26.934791973000067 ], [ 93.99852, 26.94003 ], [ 93.98666, 26.92766 ], [ 93.97519, 26.92361 ], [ 93.96257, 26.92615 ], [ 93.96903, 26.91225 ], [ 93.957695264000051, 26.904365337000055 ], [ 93.954321993000065, 26.904871328000073 ], [ 93.94403, 26.90503 ], [ 93.94265, 26.90114 ], [ 93.94669, 26.89861 ], [ 93.92484, 26.89051 ], [ 93.8899, 26.86773 ], [ 93.85802, 26.83825 ], [ 93.85427, 26.84134 ], [ 93.857278362000045, 26.850554501000033 ], [ 93.856578681000087, 26.850566778000026 ], [ 93.84563, 26.84517 ], [ 93.850473620000059, 26.851511046000034 ], [ 93.84204, 26.85226 ], [ 93.837, 26.84059 ], [ 93.82522, 26.82539 ], [ 93.82027, 26.82338 ], [ 93.80698, 26.82304 ], [ 93.79378, 26.82826 ], [ 93.78766, 26.8179 ], [ 93.786754399000074, 26.808696816000065 ], [ 93.781553633000044, 26.800340543000065 ], [ 93.78142011400007, 26.800118269000048 ], [ 93.77484, 26.79231 ], [ 93.763444099000083, 26.784036357000044 ], [ 93.763937459000033, 26.781190815000052 ], [ 93.764037126000062, 26.780615969000049 ], [ 93.76443, 26.77835 ], [ 93.772355545000039, 26.771776460000073 ], [ 93.774784024000041, 26.769623943000056 ], [ 93.79193, 26.75412 ], [ 93.81661, 26.75115 ], [ 93.87699, 26.72305 ], [ 93.89598, 26.72532 ], [ 93.917349823000052, 26.733805519000043 ], [ 93.917357529000071, 26.733817282000071 ], [ 93.94648, 26.74089 ], [ 93.97003, 26.75153 ], [ 93.991239940000071, 26.766400218000054 ], [ 93.991451113000039, 26.766710992000068 ], [ 93.996598479000056, 26.770836743000068 ], [ 93.990366961000078, 26.777944956000052 ], [ 93.993822793000064, 26.784392128000039 ], [ 94.002872521000086, 26.792005374000038 ], [ 94.007602526000085, 26.808807881000067 ], [ 94.013121383000055, 26.818793864000039 ], [ 94.015279439000039, 26.830697634000046 ], [ 94.034288750000087, 26.837221511000052 ], [ 94.073318639000036, 26.845969585000034 ], [ 94.122890234000081, 26.846749436000039 ], [ 94.170743358000038, 26.854370965000044 ], [ 94.188379288000078, 26.860567451000065 ], [ 94.206968784000082, 26.869782686000068 ], [ 94.224152555000046, 26.872274505000057 ], [ 94.235677792000047, 26.87074564500006 ], [ 94.263667661000056, 26.870628036000024 ], [ 94.281087515000081, 26.871598750000032 ], [ 94.293703807000043, 26.874559730000048 ], [ 94.296578647000061, 26.871672034000028 ], [ 94.298560858000087, 26.881529808000039 ], [ 94.303855181000074, 26.887811780000046 ], [ 94.32501727600004, 26.892767703000057 ], [ 94.353870392000033, 26.904341340000027 ], [ 94.360744715000067, 26.909615397000039 ], [ 94.371896029000084, 26.92189014000007 ], [ 94.377338648000034, 26.93757772400005 ], [ 94.381500713000037, 26.940352435000023 ], [ 94.389331346000077, 26.94100032700004 ], [ 94.400521295000033, 26.956351451000042 ], [ 94.400888669000039, 26.951810402000028 ], [ 94.402420590000077, 26.94774520600004 ], [ 94.400559630000032, 26.955913475000045 ], [ 94.40038, 26.95799 ], [ 94.401403932000051, 26.95930917500004 ], [ 94.419802574000073, 26.969845517000067 ], [ 94.423158722000039, 26.971684802000023 ], [ 94.44011, 26.98253 ], [ 94.440270678000047, 26.982602980000017 ], [ 94.456698104000054, 26.989815602000075 ], [ 94.4636, 26.99396 ], [ 94.46908, 27.00094 ], [ 94.47409, 27.02273 ], [ 94.47951, 27.02955 ], [ 94.501520193000033, 27.036920239000032 ], [ 94.50769004900009, 27.040293936000069 ], [ 94.51371006800008, 27.047703414000065 ], [ 94.521103444000062, 27.056322450000039 ], [ 94.52979, 27.06643 ], [ 94.538132346000054, 27.068837359000035 ] ] ] ] } },
{ "type": "Feature", "properties": { "shapeName": "Biswanath", "shapeISO": "", "shapeID": "76128533B40714385808093", "shapeGroup": "IND", "shapeType": "ADM2" }, "geometry": { "type": "MultiPolygon", "coordinates": [ [ [ [ 93.39152, 26.95755 ], [ 93.34876, 26.96082 ], [ 93.26779, 26.95368 ], [ 93.22337, 26.94687 ], [ 93.18528, 26.93652 ], [ 93.11004, 26.92514 ], [ 93.09295, 26.91341 ], [ 93.077474783000071, 26.917828918000048 ], [ 93.06996, 26.92213 ], [ 93.062438523000083, 26.91972730600002 ], [ 93.063272235000056, 26.912245471000059 ], [ 93.079174322000085, 26.863033984000019 ], [ 93.074997557000074, 26.853075661000055 ], [ 93.065148450000038, 26.842415989000074 ], [ 93.06125002400006, 26.840163645000079 ], [ 93.062008300000059, 26.832774692000033 ], [ 93.07867286000004, 26.813928673000074 ], [ 93.080314646000033, 26.805799988000047 ], [ 93.080281772000035, 26.791696622000075 ], [ 93.086832952000066, 26.757200831000034 ], [ 93.083482924000066, 26.748202688000042 ], [ 93.083735985000033, 26.74191465500007 ], [ 93.089438028000075, 26.721355270000053 ], [ 93.09318348100004, 26.713290668000067 ], [ 93.10106290300007, 26.705578227000043 ], [ 93.108340050000038, 26.680287663000055 ], [ 93.131796834000056, 26.669666991000046 ], [ 93.147829914000056, 26.649354896000027 ], [ 93.150929219000034, 26.642589955000059 ], [ 93.157997935000083, 26.613685342000057 ], [ 93.158288798000058, 26.606820886000037 ], [ 93.155689519000092, 26.60656112200007 ], [ 93.159989969000037, 26.600124013000023 ], [ 93.160766090000038, 26.598990266000047 ], [ 93.16077, 26.59897 ], [ 93.16584, 26.60372 ], [ 93.17239, 26.60987 ], [ 93.19437, 26.61549 ], [ 93.21685, 26.62566 ], [ 93.21956, 26.62916 ], [ 93.22988, 26.64475 ], [ 93.23378, 26.6658 ], [ 93.23817, 26.67456 ], [ 93.24556, 26.68388 ], [ 93.25064, 26.68338 ], [ 93.26518, 26.68185 ], [ 93.27448, 26.68276 ], [ 93.28909, 26.68731 ], [ 93.29089, 26.69528 ], [ 93.29716, 26.69854 ], [ 93.300298630000043, 26.697954270000022 ], [ 93.30284, 26.69748 ], [ 93.305003260000035, 26.697829187000025 ], [ 93.30792, 26.6983 ], [ 93.31954, 26.70261 ], [ 93.32369, 26.7063 ], [ 93.33637, 26.70764 ], [ 93.34073, 26.71546 ], [ 93.34266, 26.72331 ], [ 93.34796, 26.73173 ], [ 93.35803, 26.73767 ], [ 93.37264, 26.74278 ], [ 93.37567, 26.74343 ], [ 93.40675, 26.73946 ], [ 93.41443, 26.74072 ], [ 93.42158, 26.74662 ], [ 93.43223, 26.74468 ], [ 93.44388, 26.74617 ], [ 93.44963, 26.75143 ], [ 93.46122, 26.75711 ], [ 93.47153, 26.75915 ], [ 93.49295, 26.75715 ], [ 93.50975, 26.76054 ], [ 93.52259, 26.75543 ], [ 93.53448, 26.75393 ], [ 93.54567, 26.74213 ], [ 93.55408, 26.73759 ], [ 93.56284, 26.73633 ], [ 93.56046, 26.72801 ], [ 93.56612, 26.72401 ], [ 93.61889, 26.71258 ], [ 93.63785, 26.70651 ], [ 93.65012, 26.70511 ], [ 93.66564, 26.71417 ], [ 93.67223, 26.71286 ], [ 93.67248, 26.71377 ], [ 93.67474, 26.70815 ], [ 93.68276, 26.706 ], [ 93.68051, 26.72292 ], [ 93.69383, 26.73174 ], [ 93.67991, 26.74511 ], [ 93.66517, 26.76451 ], [ 93.64847, 26.78297 ], [ 93.64892, 26.78594 ], [ 93.67413, 26.7747 ], [ 93.68742, 26.7715 ], [ 93.70361, 26.77024 ], [ 93.7281, 26.77523 ], [ 93.74027, 26.77979 ], [ 93.75416, 26.7794 ], [ 93.763444099000083, 26.784036357000044 ], [ 93.77484, 26.79231 ], [ 93.77258, 26.80647 ], [ 93.77306, 26.82426 ], [ 93.77037, 26.82901 ], [ 93.7658, 26.83709 ], [ 93.772772074000045, 26.846131543000066 ], [ 93.7746, 26.84934 ], [ 93.78902, 26.85764 ], [ 93.78204, 26.87308 ], [ 93.78256, 26.87708 ], [ 93.783800855000038, 26.877805585000029 ], [ 93.78815, 26.8848 ], [ 93.78178, 26.89592 ], [ 93.76937, 26.8992 ], [ 93.76242, 26.89533 ], [ 93.7569, 26.89523 ], [ 93.75466, 26.89325 ], [ 93.75409, 26.89252 ], [ 93.7491, 26.89435 ], [ 93.74506, 26.90062 ], [ 93.7437, 26.90795 ], [ 93.74666, 26.90737 ], [ 93.75129, 26.90893 ], [ 93.751715096000055, 26.915428452000068 ], [ 93.75131, 26.9185 ], [ 93.74551, 26.93723 ], [ 93.74658, 26.94798 ], [ 93.7435, 26.95846 ], [ 93.737584477000041, 26.964434537000045 ], [ 93.72802, 26.96958 ], [ 93.72598, 26.97484 ], [ 93.70369, 26.98526 ], [ 93.70083, 26.99053 ], [ 93.69876, 26.9919 ], [ 93.67625, 26.96819 ], [ 93.65983, 26.96456 ], [ 93.62503, 26.9614 ], [ 93.58476, 26.94989 ], [ 93.57136, 26.95138 ], [ 93.53296, 26.94697 ], [ 93.531205241000066, 26.946690099000016 ], [ 93.49634, 26.93764 ], [ 93.49002, 26.93589 ], [ 93.48933, 26.93713 ], [ 93.4879, 26.93969 ], [ 93.48747, 26.94046 ], [ 93.48094, 26.93756 ], [ 93.469993964000082, 26.936417777000031 ], [ 93.46877, 26.93629 ], [ 93.46451, 26.94094 ], [ 93.44858, 26.95158 ], [ 93.39152, 26.95755 ] ] ] ] } }
]
}
