{
"type": "FeatureCollection",
"name": "districts",
"crs": { "type": "name", "properties": { "name": "urn:ogc:def:crs:OGC:1.3:CRS84" } },
"features": [
{ "type": "Feature", "properties": { "shapeName": "Bangalore Rural", "shapeISO": "", "shapeID": "76128533B48075109668277", "shapeGroup": "IND", "shapeType": "ADM2" }, "geometry": { "type": "Polygon", "coordinates": [ [ [ 77.38765, 13.50108 ], [ 77.37392, 13.48064 ], [ 77.37489, 13.47168 ], [ 77.37037, 13.4706 ], [ 77.36796, 13.46704 ], [ 77.35487, 13.46054 ], [ 77.35116, 13.45373 ], [ 77.3568, 13.44303 ], [ 77.36468, 13.43605 ], [ 77.36589, 13.42664 ], [ 77.36511, 13.42061 ], [ 77.36111, 13.41758 ], [ 77.35432, 13.41938 ], [ 77.35015, 13.41836 ], [ 77.34434, 13.37946 ], [ 77.34703, 13.37652 ], [ 77.34491, 13.35597 ], [ 77.34731, 13.34637 ], [ 77.34044, 13.33066 ], [ 77.33101, 13.33029 ], [ 77.31376, 13.32334 ], [ 77.31233, 13.31576 ], [ 77.30926, 13.31158 ], [ 77.28332, 13.3108 ], [ 77.28427, 13.29851 ], [ 77.27743, 13.29939 ], [ 77.27219, 13.31124 ], [ 77.25701, 13.30961 ], [ 77.25454, 13.304 ], [ 77.24715, 13.30333 ], [ 77.24487, 13.30351 ], [ 77.2433, 13.30828 ], [ 77.23172, 13.31176 ], [ 77.22394, 13.29559 ], [ 77.22244, 13.28485 ], [ 77.22393, 13.26929 ], [ 77.22016, 13.26401 ], [ 77.21032, 13.26268 ], [ 77.19996, 13.26744 ], [ 77.19511, 13.27184 ], [ 77.18978, 13.27271 ], [ 77.18769, 13.2563 ], [ 77.19269, 13.24244 ], [ 77.18345, 13.22817 ], [ 77.19082, 13.22493 ], [ 77.19438, 13.22177 ], [ 77.19542, 13.21102 ], [ 77.19926, 13.20619 ], [ 77.2038, 13.19383 ], [ 77.20849, 13.19439 ], [ 77.20888, 13.18899 ], [ 77.2046, 13.18444 ], [ 77.2089, 13.17916 ], [ 77.209, 13.17316 ], [ 77.21491, 13.16805 ], [ 77.21797, 13.16171 ], [ 77.21457, 13.15135 ], [ 77.21878, 13.14496 ], [ 77.22865, 13.1461 ], [ 77.23218, 13.14459 ], [ 77.23377, 13.14682 ], [ 77.24336, 13.14605 ], [ 77.24743, 13.15024 ], [ 77.2563, 13.15279 ], [ 77.26748, 13.15093 ], [ 77.27109, 13.15304 ], [ 77.27593, 13.15289 ], [ 77.27577, 13.1408 ], [ 77.2716, 13.14385 ], [ 77.26852, 13.14386 ], [ 77.26696, 13.12856 ], [ 77.26964, 13.11935 ], [ 77.27224, 13.11839 ], [ 77.27795, 13.11928 ], [ 77.28048, 13.12828 ], [ 77.28029, 13.1343 ], [ 77.28575, 13.13477 ], [ 77.2882, 13.12126 ], [ 77.29329, 13.12056 ], [ 77.29407, 13.11015 ], [ 77.29849, 13.10897 ], [ 77.30419, 13.1107 ], [ 77.31519, 13.10639 ], [ 77.31074, 13.08325 ], [ 77.31036, 13.05624 ], [ 77.31238, 13.04616 ], [ 77.32222, 13.04823 ], [ 77.32516, 13.04706 ], [ 77.3282, 13.05002 ], [ 77.33049, 13.04973 ], [ 77.33139, 13.04732 ], [ 77.3326, 13.0428 ], [ 77.33107, 13.03904 ], [ 77.3314, 13.02654 ], [ 77.32689, 13.02344 ], [ 77.32913, 13.00865 ], [ 77.3236, 13.00827 ], [ 77.32755, 12.9958 ], [ 77.34288, 12.99575 ], [ 77.36992, 13.00875 ], [ 77.37641, 13.00949 ], [ 77.37411, 13.01662 ], [ 77.38048, 13.01981 ], [ 77.37943, 13.03022 ], [ 77.39457, 13.02936 ], [ 77.39931, 13.05502 ], [ 77.39329, 13.05591 ], [ 77.39035, 13.05046 ], [ 77.38801, 13.05225 ], [ 77.38469, 13.05868 ], [ 77.38564, 13.06569 ], [ 77.40303, 13.07155 ], [ 77.43098, 13.06893 ], [ 77.42737, 13.08714 ], [ 77.4221, 13.08707 ], [ 77.42208, 13.09699 ], [ 77.42029, 13.10555 ], [ 77.40552, 13.11404 ], [ 77.40641, 13.1262 ], [ 77.40737, 13.12897 ], [ 77.41191, 13.12909 ], [ 77.41521, 13.1393 ], [ 77.42019, 13.13765 ], [ 77.43501, 13.15542 ], [ 77.43219, 13.16069 ], [ 77.43377, 13.16493 ], [ 77.44599, 13.16499 ], [ 77.45253, 13.16232 ], [ 77.46248, 13.1608 ], [ 77.46905, 13.16347 ], [ 77.46885, 13.17284 ], [ 77.47564, 13.18763 ], [ 77.47748, 13.19606 ], [ 77.47646, 13.20548 ], [ 77.47424, 13.20733 ], [ 77.4755, 13.21519 ], [ 77.48045, 13.22206 ], [ 77.51307, 13.22505 ], [ 77.5171, 13.2209 ], [ 77.52245, 13.21025 ], [ 77.52898, 13.2193 ], [ 77.5373, 13.21979 ], [ 77.5482, 13.2324 ], [ 77.56001, 13.23257 ], [ 77.55801, 13.21529 ], [ 77.57077, 13.21398 ], [ 77.57113, 13.20197 ], [ 77.57622, 13.19805 ], [ 77.59948, 13.19003 ], [ 77.60311, 13.19053 ], [ 77.60791, 13.20217 ], [ 77.61652, 13.20265 ], [ 77.61759, 13.20575 ], [ 77.62098, 13.20585 ], [ 77.6544, 13.2017 ], [ 77.65562, 13.18881 ], [ 77.65914, 13.18715 ], [ 77.66938, 13.18584 ], [ 77.67434, 13.18765 ], [ 77.6776, 13.19179 ], [ 77.68498, 13.19158 ], [ 77.69002, 13.19305 ], [ 77.69106, 13.19808 ], [ 77.69537, 13.19705 ], [ 77.69721, 13.18964 ], [ 77.70235, 13.18783 ], [ 77.71578, 13.19161 ], [ 77.72228, 13.1913 ], [ 77.72988, 13.1888 ], [ 77.73231, 13.18368 ], [ 77.73152, 13.17754 ], [ 77.72857, 13.17193 ], [ 77.73189, 13.16726 ], [ 77.72993, 13.16037 ], [ 77.73174, 13.15864 ], [ 77.73101, 13.15469 ], [ 77.73251, 13.14836 ], [ 77.73997, 13.14046 ], [ 77.73827, 13.12884 ], [ 77.74212, 13.12293 ], [ 77.73517, 13.11539 ], [ 77.72455, 13.11131 ], [ 77.7236, 13.09289 ], [ 77.71617, 13.09065 ], [ 77.71234, 13.09663 ], [ 77.70849, 13.07428 ], [ 77.71317, 13.06388 ], [ 77.72981, 13.04724 ], [ 77.72461, 13.00927 ], [ 77.72794, 13.00497 ], [ 77.72726, 13.00345 ], [ 77.72981, 12.99783 ], [ 77.74073, 12.98899 ], [ 77.74386, 12.97911 ], [ 77.73813, 12.96715 ], [ 77.73761, 12.94894 ], [ 77.72721, 12.94582 ], [ 77.71785, 12.93334 ], [ 77.73553, 12.9167 ], [ 77.7709, 12.90422 ], [ 77.79378, 12.88394 ], [ 77.82026, 12.85315 ], [ 77.82409, 12.85423 ], [ 77.82751, 12.85918 ], [ 77.83257, 12.86006 ], [ 77.83271, 12.86483 ], [ 77.83607, 12.8692 ], [ 77.83137, 12.87904 ], [ 77.83261, 12.88241 ], [ 77.83089, 12.8885 ], [ 77.83513, 12.89252 ], [ 77.83305, 12.9076 ], [ 77.83825, 12.918 ], [ 77.83929, 12.93152 ], [ 77.83461, 12.94296 ], [ 77.84085, 12.96533 ], [ 77.8478, 12.98122 ], [ 77.84917, 13.00589 ], [ 77.86529, 13.04282 ], [ 77.86997, 13.0631 ], [ 77.87933, 13.07714 ], [ 77.89702, 13.08286 ], [ 77.90378, 13.08962 ], [ 77.90222, 13.09587 ], [ 77.89546, 13.10263 ], [ 77.8965, 13.12499 ], [ 77.9069, 13.13851 ], [ 77.9303, 13.14215 ], [ 77.93654, 13.14891 ], [ 77.93654, 13.1718 ], [ 77.9277, 13.20716 ], [ 77.93342, 13.22172 ], [ 77.9407, 13.23473 ], [ 77.93675, 13.24273 ], [ 77.93653, 13.24833 ], [ 77.94303, 13.25784 ], [ 77.9398, 13.26395 ], [ 77.94005, 13.26784 ], [ 77.94061, 13.27504 ], [ 77.93687, 13.27723 ], [ 77.93238, 13.27776 ], [ 77.93256, 13.27928 ], [ 77.92935, 13.27829 ], [ 77.92613, 13.28255 ], [ 77.92613, 13.2848 ], [ 77.92421, 13.28484 ], [ 77.92475, 13.28901 ], [ 77.92232, 13.28932 ], [ 77.91723, 13.28834 ], [ 77.91375, 13.27651 ], [ 77.89658, 13.26115 ], [ 77.88061, 13.25949 ], [ 77.86756, 13.26428 ], [ 77.8632, 13.26257 ], [ 77.84883, 13.24458 ], [ 77.83512, 13.24835 ], [ 77.82208, 13.25528 ], [ 77.82261, 13.2589 ], [ 77.81179, 13.2624 ], [ 77.81968, 13.29544 ], [ 77.82385, 13.2966 ], [ 77.82508, 13.29054 ], [ 77.83173, 13.29182 ], [ 77.83152, 13.29854 ], [ 77.82916, 13.30427 ], [ 77.81668, 13.30619 ], [ 77.81412, 13.30999 ], [ 77.81466, 13.31142 ], [ 77.82057, 13.3114 ], [ 77.82094, 13.31404 ], [ 77.82622, 13.32047 ], [ 77.82902, 13.32686 ], [ 77.81523, 13.33307 ], [ 77.81063, 13.33906 ], [ 77.80126, 13.33945 ], [ 77.79311, 13.35206 ], [ 77.78556, 13.35238 ], [ 77.77149, 13.35639 ], [ 77.7624, 13.36104 ], [ 77.75508, 13.36239 ], [ 77.75193, 13.35919 ], [ 77.74926, 13.35903 ], [ 77.74681, 13.35517 ], [ 77.73884, 13.3608 ], [ 77.73281, 13.35968 ], [ 77.73184, 13.35307 ], [ 77.71798, 13.35153 ], [ 77.71543, 13.35326 ], [ 77.71592, 13.36219 ], [ 77.71882, 13.36268 ], [ 77.71654, 13.366 ], [ 77.70381, 13.35974 ], [ 77.70361, 13.35464 ], [ 77.70708, 13.34537 ], [ 77.70584, 13.34193 ], [ 77.70037, 13.33622 ], [ 77.68696, 13.35241 ], [ 77.68561, 13.35072 ], [ 77.66942, 13.34993 ], [ 77.66056, 13.35631 ], [ 77.65914, 13.36682 ], [ 77.66394, 13.3796 ], [ 77.66039, 13.38496 ], [ 77.65623, 13.38682 ], [ 77.65986, 13.39794 ], [ 77.65512, 13.39809 ], [ 77.65299, 13.39378 ], [ 77.6415, 13.39359 ], [ 77.63522, 13.37576 ], [ 77.62397, 13.37632 ], [ 77.623, 13.3827 ], [ 77.61628, 13.38629 ], [ 77.61922, 13.40229 ], [ 77.60914, 13.40492 ], [ 77.60724, 13.39706 ], [ 77.60332, 13.39764 ], [ 77.60192, 13.41521 ], [ 77.61424, 13.41638 ], [ 77.61578, 13.42154 ], [ 77.61193, 13.42575 ], [ 77.60455, 13.44185 ], [ 77.60096, 13.43773 ], [ 77.5935, 13.43594 ], [ 77.59275, 13.42186 ], [ 77.55617, 13.41833 ], [ 77.55358, 13.43069 ], [ 77.55085, 13.43563 ], [ 77.5395, 13.4363 ], [ 77.53711, 13.43218 ], [ 77.52974, 13.43192 ], [ 77.52366, 13.43429 ], [ 77.51824, 13.44327 ], [ 77.509, 13.44871 ], [ 77.5064, 13.4575 ], [ 77.49999, 13.45844 ], [ 77.49276, 13.46197 ], [ 77.48774, 13.46749 ], [ 77.4731, 13.46973 ], [ 77.46417, 13.46569 ], [ 77.46032, 13.4688 ], [ 77.45744, 13.46537 ], [ 77.44641, 13.46317 ], [ 77.43807, 13.46504 ], [ 77.43559, 13.47026 ], [ 77.4274, 13.47328 ], [ 77.42651, 13.48614 ], [ 77.42047, 13.48748 ], [ 77.41599, 13.49582 ], [ 77.41061, 13.49803 ], [ 77.40163, 13.49507 ], [ 77.38765, 13.50108 ] ] ] } },
{ "type": "Feature", "properties": { "shapeName": "Bangalore", "shapeISO": "", "shapeID": "76128533B76927648517269", "shapeGroup": "IND", "shapeType": "ADM2" }, "geometry": { "type": "Polygon", "coordinates": [ [ [ 77.32755, 12.9958 ], [ 77.33018, 12.98542 ], [ 77.33408, 12.948 ], [ 77.33805, 12.94572 ], [ 77.33974, 12.94275 ], [ 77.33532, 12.9398 ], [ 77.33513, 12.92989 ], [ 77.34322, 12.9292 ], [ 77.34281, 12.91475 ], [ 77.33845, 12.90987 ], [ 77.34623, 12.8879 ], [ 77.33563, 12.88692 ], [ 77.33574, 12.88487 ], [ 77.33818, 12.88385 ], [ 77.34062, 12.87892 ], [ 77.34922, 12.87614 ], [ 77.34959, 12.86859 ], [ 77.35566, 12.87074 ], [ 77.36757, 12.87188 ], [ 77.36969, 12.86451 ], [ 77.37647, 12.85579 ], [ 77.37897, 12.85449 ], [ 77.39522, 12.86286 ], [ 77.39803, 12.87023 ], [ 77.40363, 12.86486 ], [ 77.40604, 12.87235 ], [ 77.40948, 12.8751 ], [ 77.41367, 12.87682 ], [ 77.4167, 12.87569 ], [ 77.4184, 12.87188 ], [ 77.42045, 12.87156 ], [ 77.42211, 12.87313 ], [ 77.42758, 12.87415 ], [ 77.43151, 12.87805 ], [ 77.43212, 12.87201 ], [ 77.4224, 12.86946 ], [ 77.43023, 12.85584 ], [ 77.43409, 12.8524 ], [ 77.43951, 12.85081 ], [ 77.43917, 12.8405 ], [ 77.433, 12.83956 ], [ 77.42702, 12.83591 ], [ 77.42334, 12.83137 ], [ 77.42418, 12.82688 ], [ 77.42816, 12.82415 ], [ 77.43855, 12.82397 ], [ 77.43452, 12.81742 ], [ 77.43826, 12.81674 ], [ 77.43936, 12.81276 ], [ 77.44583, 12.80835 ], [ 77.4543, 12.81914 ], [ 77.46727, 12.80988 ], [ 77.48273, 12.80877 ], [ 77.48094, 12.80651 ], [ 77.48638, 12.8024 ], [ 77.48628, 12.8001 ], [ 77.47457, 12.79616 ], [ 77.47264, 12.79388 ], [ 77.47282, 12.79037 ], [ 77.47898, 12.78321 ], [ 77.47951, 12.77993 ], [ 77.47561, 12.76713 ], [ 77.47826, 12.76026 ], [ 77.47829, 12.75503 ], [ 77.491, 12.74393 ], [ 77.50734, 12.73656 ], [ 77.51686, 12.74566 ], [ 77.52165, 12.74478 ], [ 77.52234, 12.73306 ], [ 77.5247, 12.73359 ], [ 77.52698, 12.73666 ], [ 77.52848, 12.74267 ], [ 77.53988, 12.75559 ], [ 77.54465, 12.75316 ], [ 77.54601, 12.75411 ], [ 77.54518, 12.76441 ], [ 77.55319, 12.77444 ], [ 77.54521, 12.77675 ], [ 77.55189, 12.78721 ], [ 77.54274, 12.79959 ], [ 77.55978, 12.80076 ], [ 77.55579, 12.7894 ], [ 77.55978, 12.78922 ], [ 77.56466, 12.78669 ], [ 77.55823, 12.78103 ], [ 77.5644, 12.76457 ], [ 77.56937, 12.75984 ], [ 77.57353, 12.76362 ], [ 77.5751, 12.76986 ], [ 77.57434, 12.78061 ], [ 77.58366, 12.78759 ], [ 77.59524, 12.78322 ], [ 77.59557, 12.77833 ], [ 77.60072, 12.76734 ], [ 77.59886, 12.75715 ], [ 77.5896, 12.75028 ], [ 77.58357, 12.75388 ], [ 77.57839, 12.7527 ], [ 77.57002, 12.73764 ], [ 77.57047, 12.73416 ], [ 77.56, 12.73133 ], [ 77.56008, 12.72265 ], [ 77.56496, 12.70604 ], [ 77.57113, 12.6998 ], [ 77.57454, 12.70084 ], [ 77.59187, 12.71642 ], [ 77.59804, 12.7185 ], [ 77.60422, 12.71669 ], [ 77.61663, 12.70937 ], [ 77.61887, 12.7067 ], [ 77.60634, 12.69008 ], [ 77.60243, 12.67589 ], [ 77.59575, 12.66542 ], [ 77.59955, 12.65818 ], [ 77.60058, 12.66747 ], [ 77.64327, 12.68013 ], [ 77.64914, 12.68015 ], [ 77.66467, 12.68422 ], [ 77.68073, 12.68132 ], [ 77.67634, 12.67444 ], [ 77.67975, 12.67203 ], [ 77.67827, 12.66073 ], [ 77.68885, 12.65913 ], [ 77.69803, 12.66203 ], [ 77.70599, 12.6614 ], [ 77.71232, 12.66841 ], [ 77.71398, 12.68109 ], [ 77.71599, 12.682 ], [ 77.72465, 12.68045 ], [ 77.72587, 12.67319 ], [ 77.72896, 12.67217 ], [ 77.74201, 12.6742 ], [ 77.74378, 12.6821 ], [ 77.73781, 12.69305 ], [ 77.74411, 12.70167 ], [ 77.75768, 12.69686 ], [ 77.7608, 12.69746 ], [ 77.76659, 12.70729 ], [ 77.76793, 12.71422 ], [ 77.77211, 12.71794 ], [ 77.77362, 12.72469 ], [ 77.76614, 12.72578 ], [ 77.76221, 12.72861 ], [ 77.7636, 12.73531 ], [ 77.7689, 12.73952 ], [ 77.77754, 12.73986 ], [ 77.78867, 12.74392 ], [ 77.79314, 12.74835 ], [ 77.79546, 12.75512 ], [ 77.78439, 12.76133 ], [ 77.78217, 12.76499 ], [ 77.78214, 12.77004 ], [ 77.79206, 12.78125 ], [ 77.79355, 12.78633 ], [ 77.79845, 12.79154 ], [ 77.80404, 12.7941 ], [ 77.80844, 12.79316 ], [ 77.81002, 12.7971 ], [ 77.80187, 12.80653 ], [ 77.8049, 12.81602 ], [ 77.81117, 12.81585 ], [ 77.80917, 12.82197 ], [ 77.8115, 12.83101 ], [ 77.80277, 12.83155 ], [ 77.79847, 12.83381 ], [ 77.79398, 12.83841 ], [ 77.7953, 12.84397 ], [ 77.79902, 12.84551 ], [ 77.79988, 12.84926 ], [ 77.80238, 12.84999 ], [ 77.81026, 12.84802 ], [ 77.81539, 12.85294 ], [ 77.82026, 12.85315 ], [ 77.79378, 12.88394 ], [ 77.7709, 12.90422 ], [ 77.73553, 12.9167 ], [ 77.71785, 12.93334 ], [ 77.72721, 12.94582 ], [ 77.73761, 12.94894 ], [ 77.73813, 12.96715 ], [ 77.74386, 12.97911 ], [ 77.74073, 12.98899 ], [ 77.72981, 12.99783 ], [ 77.72726, 13.00345 ], [ 77.72794, 13.00497 ], [ 77.72461, 13.00927 ], [ 77.72981, 13.04724 ], [ 77.71317, 13.06388 ], [ 77.70849, 13.07428 ], [ 77.71234, 13.09663 ], [ 77.71617, 13.09065 ], [ 77.7236, 13.09289 ], [ 77.72455, 13.11131 ], [ 77.73517, 13.11539 ], [ 77.74212, 13.12293 ], [ 77.73827, 13.12884 ], [ 77.73997, 13.14046 ], [ 77.73251, 13.14836 ], [ 77.73101, 13.15469 ], [ 77.73174, 13.15864 ], [ 77.72993, 13.16037 ], [ 77.73189, 13.16726 ], [ 77.72857, 13.17193 ], [ 77.73152, 13.17754 ], [ 77.73231, 13.18368 ], [ 77.72988, 13.1888 ], [ 77.72228, 13.1913 ], [ 77.71578, 13.19161 ], [ 77.70235, 13.18783 ], [ 77.69721, 13.18964 ], [ 77.69537, 13.19705 ], [ 77.69106, 13.19808 ], [ 77.69002, 13.19305 ], [ 77.68498, 13.19158 ], [ 77.6776, 13.19179 ], [ 77.67434, 13.18765 ], [ 77.66938, 13.18584 ], [ 77.65914, 13.18715 ], [ 77.65562, 13.18881 ], [ 77.6544, 13.2017 ], [ 77.62098, 13.20585 ], [ 77.61759, 13.20575 ], [ 77.61652, 13.20265 ], [ 77.60791, 13.20217 ], [ 77.60311, 13.19053 ], [ 77.59948, 13.19003 ], [ 77.57622, 13.19805 ], [ 77.57113, 13.20197 ], [ 77.57077, 13.21398 ], [ 77.55801, 13.21529 ], [ 77.56001, 13.23257 ], [ 77.5482, 13.2324 ], [ 77.5373, 13.21979 ], [ 77.52898, 13.2193 ], [ 77.52245, 13.21025 ], [ 77.5171, 13.2209 ], [ 77.51307, 13.22505 ], [ 77.48045, 13.22206 ], [ 77.4755, 13.21519 ], [ 77.47424, 13.20733 ], [ 77.47646, 13.20548 ], [ 77.47748, 13.19606 ], [ 77.47564, 13.18763 ], [ 77.46885, 13.17284 ], [ 77.46905, 13.16347 ], [ 77.46248, 13.1608 ], [ 77.45253, 13.16232 ], [ 77.44599, 13.16499 ], [ 77.43377, 13.16493 ], [ 77.43219, 13.16069 ], [ 77.43501, 13.15542 ], [ 77.42019, 13.13765 ], [ 77.41521, 13.1393 ], [ 77.41191, 13.12909 ], [ 77.40737, 13.12897 ], [ 77.40641, 13.1262 ], [ 77.40552, 13.11404 ], [ 77.42029, 13.10555 ], [ 77.42208, 13.09699 ], [ 77.4221, 13.08707 ], [ 77.42737, 13.08714 ], [ 77.43098, 13.06893 ], [ 77.40303, 13.07155 ], [ 77.38564, 13.06569 ], [ 77.38469, 13.05868 ], [ 77.38801, 13.05225 ], [ 77.39035, 13.05046 ], [ 77.39329, 13.05591 ], [ 77.39931, 13.05502 ], [ 77.39457, 13.02936 ], [ 77.37943, 13.03022 ], [ 77.38048, 13.01981 ], [ 77.37411, 13.01662 ], [ 77.37641, 13.00949 ], [ 77.36992, 13.00875 ], [ 77.34288, 12.99575 ], [ 77.32755, 12.9958 ] ] ] } },
{ "type": "Feature", "properties": { "shapeName": "Ramanagara", "shapeISO": "", "shapeID": "76128533B79600797037735", "shapeGroup": "IND", "shapeType": "ADM2" }, "geometry": { "type": "Polygon", "coordinates": [ [ [ 77.32347, 12.30824 ], [ 77.3279, 12.30708 ], [ 77.3307, 12.30418 ], [ 77.33978, 12.28629 ], [ 77.34804, 12.27989 ], [ 77.35409, 12.27958 ], [ 77.36475, 12.2835 ], [ 77.38664, 12.27987 ], [ 77.39949, 12.27948 ], [ 77.40872, 12.28216 ], [ 77.41913, 12.28848 ], [ 77.43093, 12.2878 ], [ 77.43653, 12.283 ], [ 77.44124, 12.27426 ], [ 77.44948, 12.25155 ], [ 77.4519, 12.24973 ], [ 77.46454, 12.24897 ], [ 77.47366, 12.24578 ], [ 77.47421, 12.25405 ], [ 77.47738, 12.25848 ], [ 77.48088, 12.27188 ], [ 77.48914, 12.27968 ], [ 77.49493, 12.27982 ], [ 77.50136, 12.28311 ], [ 77.50393, 12.28284 ], [ 77.51284, 12.27638 ], [ 77.52915, 12.27964 ], [ 77.53213, 12.28884 ], [ 77.53432, 12.29111 ], [ 77.55356, 12.29386 ], [ 77.55598, 12.30284 ], [ 77.56694, 12.30732 ], [ 77.57945, 12.33436 ], [ 77.58615, 12.33644 ], [ 77.59702, 12.3465 ], [ 77.60204, 12.3594 ], [ 77.61108, 12.36144 ], [ 77.6147, 12.36397 ], [ 77.6172, 12.37048 ], [ 77.62071, 12.38387 ], [ 77.62409, 12.408 ], [ 77.62661, 12.41509 ], [ 77.63088, 12.41869 ], [ 77.63144, 12.42397 ], [ 77.62789, 12.42885 ], [ 77.6277, 12.43482 ], [ 77.63085, 12.44828 ], [ 77.62889, 12.45331 ], [ 77.6324, 12.46462 ], [ 77.63589, 12.48743 ], [ 77.62795, 12.49565 ], [ 77.60728, 12.47472 ], [ 77.58592, 12.47844 ], [ 77.59308, 12.48638 ], [ 77.61236, 12.50176 ], [ 77.61534, 12.50499 ], [ 77.61695, 12.50989 ], [ 77.61578, 12.51342 ], [ 77.60571, 12.51375 ], [ 77.58902, 12.51705 ], [ 77.59032, 12.52151 ], [ 77.58688, 12.54684 ], [ 77.58278, 12.55041 ], [ 77.58043, 12.56791 ], [ 77.58158, 12.57351 ], [ 77.58462, 12.5772 ], [ 77.59182, 12.5942 ], [ 77.59246, 12.61504 ], [ 77.59574, 12.62188 ], [ 77.60389, 12.62652 ], [ 77.60818, 12.631 ], [ 77.60519, 12.63708 ], [ 77.60583, 12.64039 ], [ 77.60199, 12.6427 ], [ 77.59966, 12.64658 ], [ 77.59824, 12.65263 ], [ 77.59955, 12.65818 ], [ 77.59575, 12.66542 ], [ 77.60243, 12.67589 ], [ 77.60634, 12.69008 ], [ 77.61887, 12.7067 ], [ 77.61663, 12.70937 ], [ 77.60422, 12.71669 ], [ 77.59804, 12.7185 ], [ 77.59187, 12.71642 ], [ 77.57454, 12.70084 ], [ 77.57113, 12.6998 ], [ 77.56496, 12.70604 ], [ 77.56008, 12.72265 ], [ 77.56, 12.73133 ], [ 77.57047, 12.73416 ], [ 77.57002, 12.73764 ], [ 77.57839, 12.7527 ], [ 77.58357, 12.75388 ], [ 77.5896, 12.75028 ], [ 77.59886, 12.75715 ], [ 77.60072, 12.76734 ], [ 77.59557, 12.77833 ], [ 77.59524, 12.78322 ], [ 77.58366, 12.78759 ], [ 77.57434, 12.78061 ], [ 77.5751, 12.76986 ], [ 77.57353, 12.76362 ], [ 77.56937, 12.75984 ], [ 77.5644, 12.76457 ], [ 77.55823, 12.78103 ], [ 77.56466, 12.78669 ], [ 77.55978, 12.78922 ], [ 77.55579, 12.7894 ], [ 77.55978, 12.80076 ], [ 77.54274, 12.79959 ], [ 77.55189, 12.78721 ], [ 77.54521, 12.77675 ], [ 77.55319, 12.77444 ], [ 77.54518, 12.76441 ], [ 77.54601, 12.75411 ], [ 77.54465, 12.75316 ], [ 77.53988, 12.75559 ], [ 77.52848, 12.74267 ], [ 77.52698, 12.73666 ], [ 77.5247, 12.73359 ], [ 77.52234, 12.73306 ], [ 77.52165, 12.74478 ], [ 77.51686, 12.74566 ], [ 77.50734, 12.73656 ], [ 77.491, 12.74393 ], [ 77.47829, 12.75503 ], [ 77.47826, 12.76026 ], [ 77.47561, 12.76713 ], [ 77.47951, 12.77993 ], [ 77.47898, 12.78321 ], [ 77.47282, 12.79037 ], [ 77.47264, 12.79388 ], [ 77.47457, 12.79616 ], [ 77.48628, 12.8001 ], [ 77.48638, 12.8024 ], [ 77.48094, 12.80651 ], [ 77.48273, 12.80877 ], [ 77.46727, 12.80988 ], [ 77.4543, 12.81914 ], [ 77.44583, 12.80835 ], [ 77.43936, 12.81276 ], [ 77.43826, 12.81674 ], [ 77.43452, 12.81742 ], [ 77.43855, 12.82397 ], [ 77.42816, 12.82415 ], [ 77.42418, 12.82688 ], [ 77.42334, 12.83137 ], [ 77.42702, 12.83591 ], [ 77.433, 12.83956 ], [ 77.43917, 12.8405 ], [ 77.43951, 12.85081 ], [ 77.43409, 12.8524 ], [ 77.43023, 12.85584 ], [ 77.4224, 12.86946 ], [ 77.43212, 12.87201 ], [ 77.43151, 12.87805 ], [ 77.42758, 12.87415 ], [ 77.42211, 12.87313 ], [ 77.42045, 12.87156 ], [ 77.4184, 12.87188 ], [ 77.4167, 12.87569 ], [ 77.41367, 12.87682 ], [ 77.40948, 12.8751 ], [ 77.40604, 12.87235 ], [ 77.40363, 12.86486 ], [ 77.39803, 12.87023 ], [ 77.39522, 12.86286 ], [ 77.37897, 12.85449 ], [ 77.37647, 12.85579 ], [ 77.36969, 12.86451 ], [ 77.36757, 12.87188 ], [ 77.35566, 12.87074 ], [ 77.34959, 12.86859 ], [ 77.34922, 12.87614 ], [ 77.34062, 12.87892 ], [ 77.33818, 12.88385 ], [ 77.33574, 12.88487 ], [ 77.33563, 12.88692 ], [ 77.34623, 12.8879 ], [ 77.33845, 12.90987 ], [ 77.34281, 12.91475 ], [ 77.34322, 12.9292 ], [ 77.33513, 12.92989 ], [ 77.33532, 12.9398 ], [ 77.33974, 12.94275 ], [ 77.33805, 12.94572 ], [ 77.33408, 12.948 ], [ 77.33018, 12.98542 ], [ 77.32755, 12.9958 ], [ 77.3236, 13.00827 ], [ 77.32913, 13.00865 ], [ 77.32689, 13.02344 ], [ 77.3314, 13.02654 ], [ 77.33107, 13.03904 ], [ 77.3326, 13.0428 ], [ 77.33139, 13.04732 ], [ 77.33049, 13.04973 ], [ 77.3282, 13.05002 ], [ 77.32516, 13.04706 ], [ 77.32222, 13.04823 ], [ 77.31238, 13.04616 ], [ 77.31036, 13.05624 ], [ 77.31074, 13.08325 ], [ 77.31519, 13.10639 ], [ 77.30419, 13.1107 ], [ 77.29849, 13.10897 ], [ 77.29407, 13.11015 ], [ 77.29329, 13.12056 ], [ 77.2882, 13.12126 ], [ 77.28575, 13.13477 ], [ 77.28029, 13.1343 ], [ 77.28048, 13.12828 ], [ 77.27795, 13.11928 ], [ 77.27224, 13.11839 ], [ 77.26964, 13.11935 ], [ 77.26696, 13.12856 ], [ 77.26852, 13.14386 ], [ 77.2716, 13.14385 ], [ 77.27577, 13.1408 ], [ 77.27593, 13.15289 ], [ 77.27109, 13.15304 ], [ 77.26748, 13.15093 ], [ 77.2563, 13.15279 ], [ 77.24743, 13.15024 ], [ 77.24336, 13.14605 ], [ 77.23377, 13.14682 ], [ 77.23218, 13.14459 ], [ 77.22865, 13.1461 ], [ 77.21878, 13.14496 ], [ 77.21457, 13.15135 ], [ 77.21797, 13.16171 ], [ 77.21491, 13.16805 ], [ 77.209, 13.17316 ], [ 77.2089, 13.17916 ], [ 77.2046, 13.18444 ], [ 77.19894, 13.18137 ], [ 77.18502, 13.18566 ], [ 77.17838, 13.18607 ], [ 77.17038, 13.18398 ], [ 77.16748, 13.19564 ], [ 77.15757, 13.19229 ], [ 77.1502, 13.17444 ], [ 77.14557, 13.17169 ], [ 77.1406, 13.17533 ], [ 77.13236, 13.1654 ], [ 77.12178, 13.16204 ], [ 77.12088, 13.14562 ], [ 77.11772, 13.1435 ], [ 77.11654, 13.13886 ], [ 77.11875, 13.1358 ], [ 77.11763, 13.13006 ], [ 77.10852, 13.1322 ], [ 77.10912, 13.13857 ], [ 77.1069, 13.14191 ], [ 77.09798, 13.14411 ], [ 77.09443, 13.13501 ], [ 77.08279, 13.13275 ], [ 77.07777, 13.12979 ], [ 77.07376, 13.12516 ], [ 77.07294, 13.11443 ], [ 77.08097, 13.09674 ], [ 77.08536, 13.03635 ], [ 77.09635, 13.02832 ], [ 77.09752, 13.0257 ], [ 77.10683, 13.02393 ], [ 77.11151, 13.02161 ], [ 77.11908, 13.01458 ], [ 77.11837, 13.01125 ], [ 77.10406, 13.00499 ], [ 77.10002, 12.99873 ], [ 77.10776, 12.99353 ], [ 77.11017, 12.99538 ], [ 77.13123, 12.99497 ], [ 77.13241, 12.99971 ], [ 77.12924, 13.0013 ], [ 77.12739, 13.00687 ], [ 77.13384, 13.00686 ], [ 77.13726, 13.00455 ], [ 77.14005, 13.00075 ], [ 77.13834, 12.99653 ], [ 77.14767, 12.98911 ], [ 77.14396, 12.98474 ], [ 77.13507, 12.98526 ], [ 77.13476, 12.98085 ], [ 77.13305, 12.97996 ], [ 77.13426, 12.97488 ], [ 77.1399, 12.96809 ], [ 77.14687, 12.96317 ], [ 77.16114, 12.95711 ], [ 77.16038, 12.94231 ], [ 77.16257, 12.93969 ], [ 77.163, 12.93515 ], [ 77.16445, 12.93496 ], [ 77.16723, 12.93041 ], [ 77.16645, 12.9245 ], [ 77.16087, 12.91273 ], [ 77.15113, 12.91585 ], [ 77.14446, 12.91641 ], [ 77.14177, 12.91323 ], [ 77.13893, 12.89995 ], [ 77.13668, 12.89901 ], [ 77.12935, 12.90221 ], [ 77.127, 12.89862 ], [ 77.12207, 12.89812 ], [ 77.1157, 12.89511 ], [ 77.11242, 12.89188 ], [ 77.12166, 12.88635 ], [ 77.13394, 12.88819 ], [ 77.13227, 12.87857 ], [ 77.13532, 12.87853 ], [ 77.13573, 12.8745 ], [ 77.13404, 12.85925 ], [ 77.13561, 12.85963 ], [ 77.13748, 12.85479 ], [ 77.14183, 12.85173 ], [ 77.15121, 12.84809 ], [ 77.15116, 12.83368 ], [ 77.1578, 12.82613 ], [ 77.1419, 12.8096 ], [ 77.15266, 12.79307 ], [ 77.15018, 12.78408 ], [ 77.14533, 12.78117 ], [ 77.13771, 12.78133 ], [ 77.12159, 12.77277 ], [ 77.1156, 12.77619 ], [ 77.1119, 12.77584 ], [ 77.10854, 12.77824 ], [ 77.101, 12.77536 ], [ 77.09599, 12.76573 ], [ 77.09422, 12.75745 ], [ 77.09498, 12.75345 ], [ 77.08987, 12.75237 ], [ 77.08496, 12.75778 ], [ 77.08285, 12.75707 ], [ 77.08194, 12.7472 ], [ 77.08624, 12.74123 ], [ 77.08275, 12.73473 ], [ 77.08167, 12.72527 ], [ 77.07465, 12.70231 ], [ 77.07392, 12.69339 ], [ 77.07542, 12.68352 ], [ 77.07735, 12.67944 ], [ 77.08452, 12.6771 ], [ 77.0934, 12.67549 ], [ 77.09915, 12.67604 ], [ 77.10079, 12.66804 ], [ 77.10103, 12.6419 ], [ 77.10267, 12.62981 ], [ 77.10489, 12.62938 ], [ 77.10612, 12.62592 ], [ 77.11725, 12.62903 ], [ 77.12484, 12.62381 ], [ 77.12485, 12.62071 ], [ 77.11738, 12.61695 ], [ 77.11265, 12.61637 ], [ 77.10928, 12.60233 ], [ 77.11154, 12.59732 ], [ 77.11488, 12.59622 ], [ 77.11962, 12.58065 ], [ 77.13104, 12.56887 ], [ 77.12978, 12.5674 ], [ 77.13086, 12.56113 ], [ 77.12974, 12.5527 ], [ 77.12308, 12.55463 ], [ 77.1157, 12.5541 ], [ 77.1156, 12.54359 ], [ 77.12129, 12.54012 ], [ 77.12613, 12.53104 ], [ 77.12727, 12.52109 ], [ 77.13121, 12.5189 ], [ 77.13382, 12.50204 ], [ 77.12492, 12.48608 ], [ 77.12702, 12.48159 ], [ 77.1341, 12.47768 ], [ 77.13553, 12.47111 ], [ 77.14174, 12.46339 ], [ 77.14839, 12.46277 ], [ 77.15736, 12.47103 ], [ 77.15902, 12.47577 ], [ 77.16728, 12.47623 ], [ 77.16733, 12.4833 ], [ 77.16987, 12.48464 ], [ 77.17541, 12.48353 ], [ 77.17904, 12.47951 ], [ 77.18892, 12.48282 ], [ 77.19519, 12.48324 ], [ 77.19621, 12.48449 ], [ 77.19979, 12.48415 ], [ 77.20139, 12.48918 ], [ 77.20536, 12.48907 ], [ 77.20714, 12.48526 ], [ 77.21093, 12.48583 ], [ 77.21498, 12.4871 ], [ 77.21803, 12.49165 ], [ 77.22348, 12.49191 ], [ 77.22561, 12.50084 ], [ 77.24024, 12.50028 ], [ 77.24113, 12.4935 ], [ 77.23995, 12.4884 ], [ 77.23565, 12.48725 ], [ 77.22807, 12.48903 ], [ 77.22717, 12.47623 ], [ 77.22886, 12.47586 ], [ 77.23202, 12.48306 ], [ 77.23552, 12.48283 ], [ 77.23541, 12.47893 ], [ 77.23718, 12.47638 ], [ 77.23482, 12.47515 ], [ 77.23515, 12.47302 ], [ 77.23885, 12.47032 ], [ 77.24434, 12.47001 ], [ 77.24566, 12.46764 ], [ 77.25653, 12.4703 ], [ 77.25993, 12.46312 ], [ 77.26514, 12.4631 ], [ 77.27016, 12.46607 ], [ 77.2759, 12.44032 ], [ 77.27173, 12.43578 ], [ 77.27653, 12.4314 ], [ 77.28536, 12.42911 ], [ 77.28658, 12.42292 ], [ 77.28328, 12.42108 ], [ 77.2846, 12.40836 ], [ 77.28248, 12.40753 ], [ 77.28262, 12.4054 ], [ 77.28525, 12.40491 ], [ 77.28792, 12.39299 ], [ 77.31518, 12.39108 ], [ 77.32931, 12.36675 ], [ 77.33437, 12.35427 ], [ 77.32593, 12.32728 ], [ 77.32347, 12.30824 ] ] ] } },
{ "type": "Feature", "properties": { "shapeName": "Krishnagiri", "shapeISO": "", "shapeID": "76128533B35717069663408", "shapeGroup": "IND", "shapeType": "ADM2" }, "geometry": { "type": "Polygon", "coordinates": [ [ [ 78.23218, 12.76375 ], [ 78.22401, 12.76621 ], [ 78.21042, 12.7662 ], [ 78.20171, 12.77217 ], [ 78.19539, 12.77369 ], [ 78.19011, 12.77114 ], [ 78.18673, 12.77436 ], [ 78.17756, 12.77603 ], [ 78.16953, 12.77124 ], [ 78.15908, 12.7743 ], [ 78.14784, 12.78012 ], [ 78.13197, 12.78095 ], [ 78.1291, 12.79081 ], [ 78.12631, 12.79362 ], [ 78.12383, 12.7996 ], [ 78.12069, 12.80228 ], [ 78.10886, 12.80679 ], [ 78.10633, 12.81108 ], [ 78.09764, 12.81416 ], [ 78.08724, 12.83129 ], [ 78.08479, 12.83207 ], [ 78.07703, 12.82969 ], [ 78.07747, 12.83744 ], [ 78.07564, 12.84091 ], [ 78.06242, 12.84302 ], [ 78.06155, 12.84923 ], [ 78.05774, 12.85307 ], [ 78.05299, 12.85279 ], [ 78.05101, 12.8489 ], [ 78.03311, 12.85187 ], [ 78.03053, 12.85684 ], [ 78.02584, 12.85655 ], [ 78.02527, 12.85362 ], [ 78.0278, 12.849 ], [ 78.02774, 12.84418 ], [ 78.02, 12.84433 ], [ 78.01807, 12.83883 ], [ 78.01899, 12.83359 ], [ 78.01771, 12.83118 ], [ 78.0144, 12.8291 ], [ 78.0108, 12.82966 ], [ 78.00423, 12.82428 ], [ 78.01659, 12.81392 ], [ 78.01245, 12.80609 ], [ 77.99991, 12.80815 ], [ 77.99697, 12.80592 ], [ 77.99235, 12.80624 ], [ 77.99226, 12.82101 ], [ 77.98547, 12.82501 ], [ 77.98216, 12.8332 ], [ 77.96834, 12.83204 ], [ 77.96585, 12.83569 ], [ 77.9688, 12.84686 ], [ 77.95885, 12.85295 ], [ 77.95934, 12.8586 ], [ 77.95632, 12.8598 ], [ 77.94935, 12.86015 ], [ 77.94421, 12.85524 ], [ 77.9433, 12.85009 ], [ 77.95069, 12.83984 ], [ 77.94377, 12.82341 ], [ 77.93557, 12.82419 ], [ 77.92899, 12.82966 ], [ 77.92121, 12.83013 ], [ 77.91996, 12.83245 ], [ 77.92559, 12.84942 ], [ 77.92604, 12.85469 ], [ 77.92914, 12.85779 ], [ 77.93852, 12.86091 ], [ 77.93952, 12.86469 ], [ 77.94178, 12.86665 ], [ 77.94517, 12.86649 ], [ 77.94428, 12.87213 ], [ 77.93036, 12.87391 ], [ 77.92904, 12.87927 ], [ 77.93941, 12.88185 ], [ 77.93971, 12.88519 ], [ 77.93496, 12.88825 ], [ 77.92839, 12.88876 ], [ 77.92502, 12.88393 ], [ 77.91283, 12.88373 ], [ 77.91115, 12.87824 ], [ 77.89807, 12.87726 ], [ 77.89287, 12.86873 ], [ 77.88871, 12.86986 ], [ 77.87769, 12.8694 ], [ 77.87287, 12.86755 ], [ 77.85997, 12.86797 ], [ 77.85015, 12.8661 ], [ 77.84694, 12.86787 ], [ 77.83607, 12.8692 ], [ 77.83271, 12.86483 ], [ 77.83257, 12.86006 ], [ 77.82751, 12.85918 ], [ 77.82409, 12.85423 ], [ 77.82026, 12.85315 ], [ 77.81539, 12.85294 ], [ 77.81026, 12.84802 ], [ 77.80238, 12.84999 ], [ 77.79988, 12.84926 ], [ 77.79902, 12.84551 ], [ 77.7953, 12.84397 ], [ 77.79398, 12.83841 ], [ 77.79847, 12.83381 ], [ 77.80277, 12.83155 ], [ 77.8115, 12.83101 ], [ 77.80917, 12.82197 ], [ 77.81117, 12.81585 ], [ 77.8049, 12.81602 ], [ 77.80187, 12.80653 ], [ 77.81002, 12.7971 ], [ 77.80844, 12.79316 ], [ 77.80404, 12.7941 ], [ 77.79845, 12.79154 ], [ 77.79355, 12.78633 ], [ 77.79206, 12.78125 ], [ 77.78214, 12.77004 ], [ 77.78217, 12.76499 ], [ 77.78439, 12.76133 ], [ 77.79546, 12.75512 ], [ 77.79314, 12.74835 ], [ 77.78867, 12.74392 ], [ 77.77754, 12.73986 ], [ 77.7689, 12.73952 ], [ 77.7636, 12.73531 ], [ 77.76221, 12.72861 ], [ 77.76614, 12.72578 ], [ 77.77362, 12.72469 ], [ 77.77211, 12.71794 ], [ 77.76793, 12.71422 ], [ 77.76659, 12.70729 ], [ 77.7608, 12.69746 ], [ 77.75768, 12.69686 ], [ 77.74411, 12.70167 ], [ 77.73781, 12.69305 ], [ 77.74378, 12.6821 ], [ 77.74201, 12.6742 ], [ 77.72896, 12.67217 ], [ 77.72587, 12.67319 ], [ 77.72465, 12.68045 ], [ 77.71599, 12.682 ], [ 77.71398, 12.68109 ], [ 77.71232, 12.66841 ], [ 77.70599, 12.6614 ], [ 77.69803, 12.66203 ], [ 77.68885, 12.65913 ], [ 77.67827, 12.66073 ], [ 77.67975, 12.67203 ], [ 77.67634, 12.67444 ], [ 77.68073, 12.68132 ], [ 77.66467, 12.68422 ], [ 77.64914, 12.68015 ], [ 77.64327, 12.68013 ], [ 77.60058, 12.66747 ], [ 77.59955, 12.65818 ], [ 77.59824, 12.65263 ], [ 77.59966, 12.64658 ], [ 77.60199, 12.6427 ], [ 77.60583, 12.64039 ], [ 77.60519, 12.63708 ], [ 77.60818, 12.631 ], [ 77.60389, 12.62652 ], [ 77.59574, 12.62188 ], [ 77.59246, 12.61504 ], [ 77.59182, 12.5942 ], [ 77.58462, 12.5772 ], [ 77.58158, 12.57351 ], [ 77.58043, 12.56791 ], [ 77.58278, 12.55041 ], [ 77.58688, 12.54684 ], [ 77.59032, 12.52151 ], [ 77.58902, 12.51705 ], [ 77.60571, 12.51375 ], [ 77.61578, 12.51342 ], [ 77.61695, 12.50989 ], [ 77.61534, 12.50499 ], [ 77.61236, 12.50176 ], [ 77.59308, 12.48638 ], [ 77.58592, 12.47844 ], [ 77.60728, 12.47472 ], [ 77.62795, 12.49565 ], [ 77.63589, 12.48743 ], [ 77.6324, 12.46462 ], [ 77.62889, 12.45331 ], [ 77.63085, 12.44828 ], [ 77.6277, 12.43482 ], [ 77.62789, 12.42885 ], [ 77.63144, 12.42397 ], [ 77.63088, 12.41869 ], [ 77.62661, 12.41509 ], [ 77.62409, 12.408 ], [ 77.62071, 12.38387 ], [ 77.6172, 12.37048 ], [ 77.6147, 12.36397 ], [ 77.61108, 12.36144 ], [ 77.60204, 12.3594 ], [ 77.59702, 12.3465 ], [ 77.58615, 12.33644 ], [ 77.57945, 12.33436 ], [ 77.56694, 12.30732 ], [ 77.55598, 12.30284 ], [ 77.55356, 12.29386 ], [ 77.53432, 12.29111 ], [ 77.53213, 12.28884 ], [ 77.52915, 12.27964 ], [ 77.51284, 12.27638 ], [ 77.50393, 12.28284 ], [ 77.50136, 12.28311 ], [ 77.49493, 12.27982 ], [ 77.48914, 12.27968 ], [ 77.48088, 12.27188 ], [ 77.47738, 12.25848 ], [ 77.47421, 12.25405 ], [ 77.47366, 12.24578 ], [ 77.4775, 12.24401 ], [ 77.48443, 12.23499 ], [ 77.48308, 12.22737 ], [ 77.47646, 12.21231 ], [ 77.48005, 12.20657 ], [ 77.48577, 12.2059 ], [ 77.49334, 12.20021 ], [ 77.52226, 12.19414 ], [ 77.5306, 12.19882 ], [ 77.53543, 12.19842 ], [ 77.54202, 12.20033 ], [ 77.54442, 12.20403 ], [ 77.5497, 12.20482 ], [ 77.56689, 12.19736 ], [ 77.57297, 12.20052 ], [ 77.57695, 12.20094 ], [ 77.58078, 12.1993 ], [ 77.59717, 12.19846 ], [ 77.60759, 12.20645 ], [ 77.61528, 12.20551 ], [ 77.62416, 12.2011 ], [ 77.63259, 12.20209 ], [ 77.6401, 12.19693 ], [ 77.65595, 12.19902 ], [ 77.66684, 12.19823 ], [ 77.67503, 12.19413 ], [ 77.71277, 12.18345 ], [ 77.72109, 12.18402 ], [ 77.731, 12.18214 ], [ 77.73789, 12.17796 ], [ 77.74353, 12.16528 ], [ 77.75067, 12.15856 ], [ 77.75141, 12.16118 ], [ 77.76024, 12.16971 ], [ 77.77485, 12.17562 ], [ 77.77778, 12.17213 ], [ 77.77884, 12.16492 ], [ 77.78271, 12.15904 ], [ 77.79474, 12.15304 ], [ 77.79917, 12.15286 ], [ 77.80032, 12.1545 ], [ 77.80167, 12.17464 ], [ 77.80399, 12.17966 ], [ 77.80932, 12.18573 ], [ 77.81329, 12.19847 ], [ 77.81442, 12.22584 ], [ 77.82361, 12.24257 ], [ 77.84201, 12.2643 ], [ 77.86124, 12.2643 ], [ 77.87043, 12.28019 ], [ 77.87289, 12.28114 ], [ 77.87196, 12.28192 ], [ 77.87485, 12.29622 ], [ 77.87835, 12.30655 ], [ 77.88007, 12.3231 ], [ 77.87456, 12.34224 ], [ 77.87534, 12.34708 ], [ 77.87205, 12.34915 ], [ 77.87203, 12.35499 ], [ 77.88322, 12.36128 ], [ 77.8869, 12.36163 ], [ 77.89897, 12.3614 ], [ 77.91388, 12.35622 ], [ 77.92151, 12.35699 ], [ 77.9332, 12.35552 ], [ 77.93702, 12.35685 ], [ 77.95099, 12.3668 ], [ 77.9528, 12.37253 ], [ 77.95307, 12.38064 ], [ 77.95757, 12.38786 ], [ 77.9573, 12.39143 ], [ 77.9522, 12.40069 ], [ 77.95031, 12.41212 ], [ 77.95476, 12.41491 ], [ 77.96773, 12.43286 ], [ 77.96889, 12.43897 ], [ 77.96742, 12.44218 ], [ 77.96935, 12.451 ], [ 77.96275, 12.46186 ], [ 77.96164, 12.46834 ], [ 77.9427, 12.48647 ], [ 77.93786, 12.48551 ], [ 77.93599, 12.48221 ], [ 77.92877, 12.47722 ], [ 77.92047, 12.48799 ], [ 77.92448, 12.50194 ], [ 77.92792, 12.50345 ], [ 77.9297, 12.50609 ], [ 77.92768, 12.51271 ], [ 77.92316, 12.52031 ], [ 77.92073, 12.52198 ], [ 77.90748, 12.52198 ], [ 77.90429, 12.52784 ], [ 77.89934, 12.5306 ], [ 77.90152, 12.53459 ], [ 77.90593, 12.53825 ], [ 77.9183, 12.53589 ], [ 77.93681, 12.5458 ], [ 77.94695, 12.53983 ], [ 77.95055, 12.53094 ], [ 77.95092, 12.52474 ], [ 77.95477, 12.52205 ], [ 77.96172, 12.52594 ], [ 77.96737, 12.53641 ], [ 77.9716, 12.53844 ], [ 77.97602, 12.53802 ], [ 77.97977, 12.5409 ], [ 77.98104, 12.54238 ], [ 77.98142, 12.54985 ], [ 77.98465, 12.55088 ], [ 77.9871, 12.54979 ], [ 77.98946, 12.54417 ], [ 77.99142, 12.54369 ], [ 77.99609, 12.54371 ], [ 78.00406, 12.54677 ], [ 78.00843, 12.54515 ], [ 78.00795, 12.53418 ], [ 78.00996, 12.52371 ], [ 78.03188, 12.52126 ], [ 78.03809, 12.51916 ], [ 78.04199, 12.51612 ], [ 78.04471, 12.51771 ], [ 78.04815, 12.51755 ], [ 78.0547, 12.51283 ], [ 78.05949, 12.5071 ], [ 78.07522, 12.50593 ], [ 78.07895, 12.50119 ], [ 78.07915, 12.4913 ], [ 78.08101, 12.48711 ], [ 78.09643, 12.47856 ], [ 78.0987, 12.47889 ], [ 78.10133, 12.48334 ], [ 78.10512, 12.48435 ], [ 78.1088, 12.4895 ], [ 78.11608, 12.48593 ], [ 78.1187, 12.474 ], [ 78.14387, 12.45608 ], [ 78.1445, 12.45303 ], [ 78.1428, 12.44786 ], [ 78.13265, 12.43689 ], [ 78.13438, 12.43037 ], [ 78.13165, 12.42561 ], [ 78.13164, 12.42247 ], [ 78.13385, 12.41879 ], [ 78.14038, 12.38961 ], [ 78.14733, 12.38619 ], [ 78.14862, 12.3842 ], [ 78.15067, 12.38464 ], [ 78.15346, 12.38197 ], [ 78.16397, 12.37812 ], [ 78.16039, 12.36878 ], [ 78.16089, 12.36405 ], [ 78.16221, 12.36077 ], [ 78.16928, 12.3541 ], [ 78.17005, 12.35003 ], [ 78.1757, 12.35021 ], [ 78.18037, 12.34781 ], [ 78.18194, 12.34923 ], [ 78.18997, 12.34592 ], [ 78.1909, 12.34816 ], [ 78.19302, 12.3481 ], [ 78.19648, 12.34476 ], [ 78.19671, 12.34216 ], [ 78.2031, 12.34229 ], [ 78.20987, 12.35049 ], [ 78.21838, 12.35717 ], [ 78.22476, 12.35906 ], [ 78.23275, 12.35717 ], [ 78.23132, 12.34929 ], [ 78.23252, 12.34505 ], [ 78.23792, 12.33727 ], [ 78.2323, 12.33133 ], [ 78.22348, 12.32969 ], [ 78.22129, 12.32799 ], [ 78.22077, 12.32413 ], [ 78.22508, 12.32012 ], [ 78.22314, 12.31213 ], [ 78.23628, 12.30753 ], [ 78.2456, 12.30176 ], [ 78.24579, 12.29823 ], [ 78.24913, 12.29555 ], [ 78.24602, 12.28554 ], [ 78.25216, 12.27622 ], [ 78.25178, 12.27415 ], [ 78.25375, 12.27249 ], [ 78.25446, 12.26911 ], [ 78.2657, 12.26543 ], [ 78.27341, 12.27225 ], [ 78.28364, 12.27692 ], [ 78.28839, 12.27232 ], [ 78.30475, 12.26628 ], [ 78.31111, 12.27395 ], [ 78.31403, 12.27419 ], [ 78.3185, 12.27088 ], [ 78.32121, 12.26651 ], [ 78.33238, 12.26208 ], [ 78.33424, 12.25183 ], [ 78.3379, 12.2468 ], [ 78.33757, 12.23485 ], [ 78.34349, 12.23296 ], [ 78.35389, 12.23321 ], [ 78.35799, 12.23185 ], [ 78.36948, 12.23561 ], [ 78.38548, 12.22879 ], [ 78.385, 12.22066 ], [ 78.37528, 12.21142 ], [ 78.3678, 12.21203 ], [ 78.36081, 12.20946 ], [ 78.35864, 12.20311 ], [ 78.35893, 12.19896 ], [ 78.36765, 12.19703 ], [ 78.37512, 12.19034 ], [ 78.3861, 12.19319 ], [ 78.39477, 12.19832 ], [ 78.3987, 12.19762 ], [ 78.40527, 12.19338 ], [ 78.4314, 12.19361 ], [ 78.44787, 12.18282 ], [ 78.45718, 12.17477 ], [ 78.45648, 12.15599 ], [ 78.45448, 12.14829 ], [ 78.48435, 12.13728 ], [ 78.48674, 12.1371 ], [ 78.49442, 12.14108 ], [ 78.4987, 12.1404 ], [ 78.49787, 12.14962 ], [ 78.50678, 12.16852 ], [ 78.50781, 12.18083 ], [ 78.51453, 12.18262 ], [ 78.54279, 12.18282 ], [ 78.54948, 12.18463 ], [ 78.56682, 12.19854 ], [ 78.57137, 12.19791 ], [ 78.57692, 12.17143 ], [ 78.57926, 12.16647 ], [ 78.58861, 12.16837 ], [ 78.5945, 12.17114 ], [ 78.60024, 12.17874 ], [ 78.60714, 12.18484 ], [ 78.61378, 12.18703 ], [ 78.62323, 12.18631 ], [ 78.63512, 12.17705 ], [ 78.64499, 12.20509 ], [ 78.65956, 12.19753 ], [ 78.67049, 12.20968 ], [ 78.67308, 12.21868 ], [ 78.67293, 12.225 ], [ 78.67015, 12.23067 ], [ 78.66374, 12.23587 ], [ 78.6532, 12.23987 ], [ 78.65445, 12.24635 ], [ 78.65272, 12.2589 ], [ 78.6372, 12.26273 ], [ 78.6413, 12.26676 ], [ 78.64517, 12.28056 ], [ 78.64389, 12.28258 ], [ 78.62664, 12.26523 ], [ 78.62039, 12.26939 ], [ 78.61533, 12.26389 ], [ 78.61134, 12.26279 ], [ 78.6075, 12.26399 ], [ 78.60538, 12.26741 ], [ 78.6051, 12.27237 ], [ 78.61518, 12.29504 ], [ 78.61232, 12.29882 ], [ 78.61176, 12.30883 ], [ 78.60999, 12.3123 ], [ 78.60568, 12.31368 ], [ 78.60066, 12.3145 ], [ 78.59561, 12.30939 ], [ 78.59022, 12.31314 ], [ 78.59439, 12.3178 ], [ 78.59592, 12.32284 ], [ 78.60149, 12.32397 ], [ 78.60811, 12.33245 ], [ 78.61269, 12.32991 ], [ 78.61773, 12.33846 ], [ 78.61709, 12.3425 ], [ 78.61861, 12.34713 ], [ 78.61365, 12.35214 ], [ 78.59278, 12.35806 ], [ 78.5835, 12.36422 ], [ 78.5751, 12.37433 ], [ 78.5707, 12.38651 ], [ 78.55754, 12.39077 ], [ 78.54551, 12.39766 ], [ 78.53634, 12.39795 ], [ 78.51648, 12.40557 ], [ 78.51319, 12.40135 ], [ 78.50751, 12.40017 ], [ 78.50304, 12.40775 ], [ 78.4977, 12.41041 ], [ 78.49341, 12.4049 ], [ 78.4906, 12.38774 ], [ 78.48367, 12.39054 ], [ 78.46718, 12.39162 ], [ 78.46495, 12.39102 ], [ 78.46025, 12.38515 ], [ 78.44411, 12.39076 ], [ 78.44031, 12.39059 ], [ 78.4369, 12.39419 ], [ 78.43701, 12.39736 ], [ 78.44127, 12.40132 ], [ 78.44211, 12.40769 ], [ 78.45123, 12.41918 ], [ 78.45535, 12.43011 ], [ 78.44942, 12.44127 ], [ 78.45144, 12.45061 ], [ 78.43431, 12.46273 ], [ 78.42742, 12.47405 ], [ 78.42153, 12.47533 ], [ 78.42139, 12.48254 ], [ 78.41852, 12.4882 ], [ 78.41766, 12.49559 ], [ 78.42104, 12.51205 ], [ 78.41631, 12.51693 ], [ 78.41827, 12.52537 ], [ 78.41533, 12.52723 ], [ 78.42099, 12.56899 ], [ 78.41129, 12.58837 ], [ 78.41092, 12.59957 ], [ 78.40838, 12.60225 ], [ 78.41034, 12.60844 ], [ 78.40843, 12.61972 ], [ 78.40967, 12.62528 ], [ 78.39826, 12.62554 ], [ 78.38043, 12.62347 ], [ 78.37263, 12.62673 ], [ 78.34136, 12.64994 ], [ 78.33432, 12.64871 ], [ 78.32067, 12.66147 ], [ 78.30683, 12.66567 ], [ 78.30231, 12.66433 ], [ 78.29886, 12.66956 ], [ 78.296, 12.67901 ], [ 78.27616, 12.70317 ], [ 78.25074, 12.70366 ], [ 78.24432, 12.705 ], [ 78.2391, 12.70053 ], [ 78.23834, 12.69139 ], [ 78.23978, 12.68512 ], [ 78.21174, 12.68684 ], [ 78.20694, 12.69115 ], [ 78.20145, 12.69248 ], [ 78.20107, 12.69473 ], [ 78.21094, 12.70116 ], [ 78.20631, 12.70644 ], [ 78.20767, 12.70786 ], [ 78.21159, 12.70741 ], [ 78.21486, 12.71019 ], [ 78.22142, 12.71045 ], [ 78.22544, 12.71356 ], [ 78.23196, 12.71451 ], [ 78.23885, 12.72638 ], [ 78.24049, 12.73141 ], [ 78.23082, 12.7582 ], [ 78.23218, 12.76375 ] ] ] } }
]
}
