{
"type": "FeatureCollection",
"name": "districts",
"crs": { "type": "name", "properties": { "name": "urn:ogc:def:crs:OGC:1.3:CRS84" } },
"features": [
{ "type": "Feature", "properties": { "shapeName": "Alappuzha", "shapeISO": "", "shapeID": "76128533B86368264587575", "shapeGroup": "IND", "shapeType": "ADM2" }, "geometry": { "type": "Polygon", "coordinates": [ [ [ 76.51487, 9.40065 ], [ 76.50758, 9.40496 ], [ 76.50891, 9.40753 ], [ 76.50754, 9.41145 ], [ 76.50819, 9.41739 ], [ 76.50955, 9.41888 ], [ 76.50842, 9.42357 ], [ 76.50711, 9.42367 ], [ 76.50782, 9.42897 ], [ 76.50629, 9.42868 ], [ 76.50613, 9.42976 ], [ 76.51305, 9.43661 ], [ 76.5096, 9.43844 ], [ 76.50443, 9.43844 ], [ 76.50424, 9.44006 ], [ 76.4992, 9.43986 ], [ 76.49693, 9.44346 ], [ 76.4995, 9.44841 ], [ 76.49893, 9.45258 ], [ 76.50727, 9.46738 ], [ 76.50757, 9.47628 ], [ 76.51078, 9.47819 ], [ 76.50849, 9.48917 ], [ 76.51006, 9.48978 ], [ 76.5106, 9.49864 ], [ 76.51238, 9.49984 ], [ 76.51154, 9.50126 ], [ 76.5077, 9.50147 ], [ 76.5068, 9.50304 ], [ 76.49962, 9.50265 ], [ 76.49603, 9.50565 ], [ 76.48359, 9.50753 ], [ 76.48108, 9.50615 ], [ 76.48143, 9.53579 ], [ 76.4799, 9.53846 ], [ 76.46754, 9.54411 ], [ 76.46724, 9.56199 ], [ 76.44736, 9.55874 ], [ 76.43522, 9.55387 ], [ 76.42402, 9.55649 ], [ 76.41818, 9.55962 ], [ 76.41711, 9.56087 ], [ 76.41832, 9.56394 ], [ 76.4058, 9.55886 ], [ 76.40628, 9.55328 ], [ 76.39396, 9.54804 ], [ 76.40126, 9.63901 ], [ 76.39831, 9.65509 ], [ 76.39979, 9.66939 ], [ 76.40446, 9.68579 ], [ 76.37787, 9.69645 ], [ 76.37887, 9.71089 ], [ 76.38255, 9.72718 ], [ 76.3824, 9.7515 ], [ 76.38048, 9.76334 ], [ 76.37868, 9.76373 ], [ 76.37452, 9.76999 ], [ 76.37335, 9.77585 ], [ 76.37429, 9.78027 ], [ 76.3694, 9.78501 ], [ 76.36694, 9.79428 ], [ 76.37125, 9.80362 ], [ 76.38178, 9.81527 ], [ 76.38309, 9.8206 ], [ 76.37975, 9.83121 ], [ 76.37422, 9.83697 ], [ 76.3712, 9.84714 ], [ 76.37144, 9.85299 ], [ 76.37338, 9.85578 ], [ 76.37189, 9.86003 ], [ 76.36719, 9.86797 ], [ 76.36184, 9.8733 ], [ 76.35891, 9.87963 ], [ 76.35419, 9.88426 ], [ 76.35123, 9.88161 ], [ 76.34293, 9.87838 ], [ 76.33254, 9.87684 ], [ 76.32264, 9.88136 ], [ 76.31195, 9.88345 ], [ 76.30255, 9.89088 ], [ 76.29427, 9.89163 ], [ 76.29702, 9.87067 ], [ 76.29631, 9.86797 ], [ 76.30071, 9.85419 ], [ 76.29984, 9.85197 ], [ 76.28778, 9.84973 ], [ 76.28668, 9.83726 ], [ 76.28169, 9.83191 ], [ 76.28067, 9.82682 ], [ 76.28165, 9.82274 ], [ 76.2856, 9.81737 ], [ 76.28832, 9.81887 ], [ 76.29373, 9.80855 ], [ 76.29333, 9.80616 ], [ 76.28387, 9.80403 ], [ 76.28471, 9.78994 ], [ 76.27702, 9.79006 ], [ 76.28581, 9.72785 ], [ 76.29481, 9.62263 ], [ 76.30508, 9.55581 ], [ 76.31476, 9.50401 ], [ 76.32776, 9.44863 ], [ 76.3406, 9.40831 ], [ 76.35234, 9.37782 ], [ 76.4678, 9.12545 ], [ 76.47426, 9.12932 ], [ 76.4792, 9.12544 ], [ 76.48365, 9.12476 ], [ 76.48698, 9.1262 ], [ 76.49191, 9.12454 ], [ 76.49789, 9.12587 ], [ 76.50784, 9.12555 ], [ 76.50411, 9.13513 ], [ 76.50804, 9.1351 ], [ 76.53056, 9.14495 ], [ 76.53462, 9.14493 ], [ 76.54407, 9.1425 ], [ 76.54367, 9.13056 ], [ 76.54556, 9.12981 ], [ 76.54594, 9.12735 ], [ 76.54877, 9.12687 ], [ 76.55116, 9.11471 ], [ 76.55315, 9.11084 ], [ 76.56058, 9.11007 ], [ 76.57004, 9.11184 ], [ 76.57191, 9.11657 ], [ 76.57521, 9.11753 ], [ 76.58001, 9.11557 ], [ 76.58123, 9.11794 ], [ 76.58631, 9.11713 ], [ 76.58597, 9.1212 ], [ 76.59082, 9.12325 ], [ 76.59138, 9.12757 ], [ 76.59024, 9.12949 ], [ 76.59395, 9.13191 ], [ 76.59806, 9.13252 ], [ 76.6096, 9.12918 ], [ 76.6169, 9.13055 ], [ 76.62304, 9.13723 ], [ 76.63521, 9.13871 ], [ 76.63647, 9.14211 ], [ 76.63916, 9.14894 ], [ 76.64227, 9.15073 ], [ 76.65231, 9.15044 ], [ 76.65466, 9.15234 ], [ 76.66394, 9.14978 ], [ 76.67506, 9.15346 ], [ 76.67588, 9.15422 ], [ 76.67366, 9.16287 ], [ 76.67616, 9.16896 ], [ 76.68019, 9.17077 ], [ 76.6813, 9.17372 ], [ 76.68942, 9.16895 ], [ 76.68927, 9.172 ], [ 76.69247, 9.17617 ], [ 76.69003, 9.18034 ], [ 76.68598, 9.17995 ], [ 76.68111, 9.1817 ], [ 76.67806, 9.19368 ], [ 76.67498, 9.19452 ], [ 76.67036, 9.19935 ], [ 76.66343, 9.20083 ], [ 76.65892, 9.20459 ], [ 76.65526, 9.20325 ], [ 76.64899, 9.20722 ], [ 76.64784, 9.21466 ], [ 76.64864, 9.2201 ], [ 76.64092, 9.23358 ], [ 76.64954, 9.23784 ], [ 76.65234, 9.23635 ], [ 76.65555, 9.23738 ], [ 76.65657, 9.24131 ], [ 76.65939, 9.24197 ], [ 76.65919, 9.24778 ], [ 76.66047, 9.2494 ], [ 76.65966, 9.25771 ], [ 76.65736, 9.2591 ], [ 76.6566, 9.26152 ], [ 76.65772, 9.26387 ], [ 76.66597, 9.26594 ], [ 76.66361, 9.26917 ], [ 76.66809, 9.26933 ], [ 76.6717, 9.27581 ], [ 76.66775, 9.27697 ], [ 76.67329, 9.27882 ], [ 76.67846, 9.28262 ], [ 76.67586, 9.28737 ], [ 76.67684, 9.29122 ], [ 76.67138, 9.28976 ], [ 76.66555, 9.29214 ], [ 76.6607, 9.29037 ], [ 76.65528, 9.29221 ], [ 76.65202, 9.29831 ], [ 76.65332, 9.30831 ], [ 76.64673, 9.30985 ], [ 76.64578, 9.3153 ], [ 76.643, 9.31892 ], [ 76.64311, 9.32332 ], [ 76.64173, 9.32344 ], [ 76.64086, 9.32595 ], [ 76.6354, 9.3271 ], [ 76.641, 9.32935 ], [ 76.64364, 9.33309 ], [ 76.64198, 9.33612 ], [ 76.64383, 9.3393 ], [ 76.64327, 9.34094 ], [ 76.63034, 9.34251 ], [ 76.62855, 9.34189 ], [ 76.62975, 9.33714 ], [ 76.62407, 9.33854 ], [ 76.61864, 9.34139 ], [ 76.61672, 9.3409 ], [ 76.61488, 9.34314 ], [ 76.61144, 9.34189 ], [ 76.60806, 9.345 ], [ 76.60477, 9.34403 ], [ 76.60268, 9.34708 ], [ 76.59955, 9.34625 ], [ 76.59878, 9.34929 ], [ 76.59683, 9.35033 ], [ 76.59771, 9.35206 ], [ 76.59637, 9.35266 ], [ 76.59188, 9.35096 ], [ 76.58891, 9.35181 ], [ 76.58688, 9.34845 ], [ 76.58403, 9.34927 ], [ 76.58317, 9.34724 ], [ 76.58085, 9.35047 ], [ 76.58154, 9.35326 ], [ 76.57575, 9.3538 ], [ 76.57382, 9.35576 ], [ 76.56847, 9.35599 ], [ 76.56679, 9.35306 ], [ 76.56474, 9.35401 ], [ 76.55847, 9.35032 ], [ 76.55467, 9.35225 ], [ 76.55171, 9.35189 ], [ 76.55062, 9.35087 ], [ 76.55276, 9.34779 ], [ 76.56141, 9.34288 ], [ 76.55726, 9.34003 ], [ 76.55664, 9.33634 ], [ 76.55307, 9.33514 ], [ 76.55516, 9.33126 ], [ 76.55293, 9.32561 ], [ 76.5516, 9.32514 ], [ 76.54721, 9.32602 ], [ 76.54133, 9.32371 ], [ 76.53773, 9.32362 ], [ 76.53586, 9.32504 ], [ 76.53517, 9.32381 ], [ 76.5319, 9.33052 ], [ 76.52967, 9.32933 ], [ 76.52987, 9.32575 ], [ 76.51988, 9.3284 ], [ 76.50184, 9.32486 ], [ 76.49733, 9.32527 ], [ 76.48889, 9.32991 ], [ 76.47595, 9.32959 ], [ 76.47572, 9.33236 ], [ 76.47816, 9.33469 ], [ 76.47678, 9.33573 ], [ 76.48017, 9.33812 ], [ 76.4849, 9.34531 ], [ 76.49048, 9.34726 ], [ 76.49804, 9.34704 ], [ 76.50225, 9.35042 ], [ 76.50721, 9.35168 ], [ 76.51051, 9.3549 ], [ 76.51842, 9.35338 ], [ 76.5173, 9.3613 ], [ 76.51383, 9.36533 ], [ 76.51725, 9.36443 ], [ 76.51942, 9.36623 ], [ 76.52523, 9.3656 ], [ 76.52468, 9.36904 ], [ 76.516, 9.3705 ], [ 76.51603, 9.37288 ], [ 76.51096, 9.37678 ], [ 76.51204, 9.3823 ], [ 76.514, 9.38234 ], [ 76.51363, 9.38614 ], [ 76.51602, 9.38992 ], [ 76.51272, 9.39206 ], [ 76.51487, 9.40065 ] ] ] } },
{ "type": "Feature", "properties": { "shapeName": "Ernakulam", "shapeISO": "", "shapeID": "76128533B75519739609062", "shapeGroup": "IND", "shapeType": "ADM2" }, "geometry": { "type": "Polygon", "coordinates": [ [ [ 76.37422, 9.83697 ], [ 76.38186, 9.84334 ], [ 76.38998, 9.84445 ], [ 76.3964, 9.83079 ], [ 76.40576, 9.83114 ], [ 76.40869, 9.8287 ], [ 76.41353, 9.82843 ], [ 76.41535, 9.82279 ], [ 76.42112, 9.82444 ], [ 76.42248, 9.82347 ], [ 76.42896, 9.82445 ], [ 76.4484, 9.835 ], [ 76.45144, 9.84106 ], [ 76.45563, 9.84119 ], [ 76.46005, 9.84848 ], [ 76.47582, 9.84401 ], [ 76.47587, 9.84246 ], [ 76.4833, 9.84614 ], [ 76.48413, 9.84325 ], [ 76.48727, 9.84623 ], [ 76.49965, 9.85126 ], [ 76.50636, 9.85006 ], [ 76.50737, 9.8515 ], [ 76.51621, 9.84831 ], [ 76.51627, 9.84157 ], [ 76.52073, 9.83555 ], [ 76.51967, 9.83343 ], [ 76.52218, 9.8236 ], [ 76.52631, 9.82657 ], [ 76.53366, 9.82504 ], [ 76.54103, 9.82145 ], [ 76.54073, 9.81401 ], [ 76.546, 9.81321 ], [ 76.54363, 9.80882 ], [ 76.54388, 9.80634 ], [ 76.54798, 9.80379 ], [ 76.54874, 9.79944 ], [ 76.55115, 9.80134 ], [ 76.5579, 9.80203 ], [ 76.55839, 9.80827 ], [ 76.56075, 9.81051 ], [ 76.55983, 9.8145 ], [ 76.56293, 9.82045 ], [ 76.56507, 9.82005 ], [ 76.56739, 9.82342 ], [ 76.5697, 9.82388 ], [ 76.57704, 9.81916 ], [ 76.582, 9.82199 ], [ 76.58326, 9.82653 ], [ 76.5819, 9.8354 ], [ 76.58361, 9.83708 ], [ 76.58162, 9.84319 ], [ 76.58875, 9.84203 ], [ 76.59044, 9.84348 ], [ 76.5934, 9.84147 ], [ 76.59292, 9.84406 ], [ 76.59357, 9.84513 ], [ 76.59477, 9.84446 ], [ 76.59445, 9.84626 ], [ 76.60361, 9.84541 ], [ 76.60757, 9.84002 ], [ 76.61004, 9.84037 ], [ 76.60988, 9.842 ], [ 76.61156, 9.84242 ], [ 76.61321, 9.83867 ], [ 76.61846, 9.83744 ], [ 76.61811, 9.84067 ], [ 76.61126, 9.84883 ], [ 76.61291, 9.85416 ], [ 76.61784, 9.85235 ], [ 76.61943, 9.85632 ], [ 76.62579, 9.85805 ], [ 76.63071, 9.85587 ], [ 76.6341, 9.85749 ], [ 76.63436, 9.86268 ], [ 76.63663, 9.86443 ], [ 76.63466, 9.86513 ], [ 76.63382, 9.87266 ], [ 76.63793, 9.87467 ], [ 76.63746, 9.88464 ], [ 76.63322, 9.88475 ], [ 76.63188, 9.88967 ], [ 76.63256, 9.89274 ], [ 76.62963, 9.90102 ], [ 76.63327, 9.90512 ], [ 76.63103, 9.91325 ], [ 76.63592, 9.91703 ], [ 76.64274, 9.91726 ], [ 76.64966, 9.92083 ], [ 76.65286, 9.91809 ], [ 76.65605, 9.91759 ], [ 76.65893, 9.9199 ], [ 76.66271, 9.91596 ], [ 76.67367, 9.9186 ], [ 76.67743, 9.91662 ], [ 76.68271, 9.9171 ], [ 76.68363, 9.91118 ], [ 76.69138, 9.90743 ], [ 76.69472, 9.90696 ], [ 76.69856, 9.90938 ], [ 76.70362, 9.91025 ], [ 76.7009, 9.91098 ], [ 76.70017, 9.91511 ], [ 76.7035, 9.91647 ], [ 76.70106, 9.91912 ], [ 76.69734, 9.91512 ], [ 76.69522, 9.91837 ], [ 76.69564, 9.92069 ], [ 76.68667, 9.92398 ], [ 76.68879, 9.92612 ], [ 76.69255, 9.92699 ], [ 76.69573, 9.93265 ], [ 76.70146, 9.92887 ], [ 76.70668, 9.93956 ], [ 76.71201, 9.94229 ], [ 76.71295, 9.94523 ], [ 76.71617, 9.94304 ], [ 76.71703, 9.94624 ], [ 76.71384, 9.94949 ], [ 76.71489, 9.95247 ], [ 76.71975, 9.95364 ], [ 76.72127, 9.9512 ], [ 76.72409, 9.95294 ], [ 76.72612, 9.95677 ], [ 76.72243, 9.9585 ], [ 76.7168, 9.965 ], [ 76.71774, 9.96927 ], [ 76.7141, 9.97275 ], [ 76.71372, 9.97928 ], [ 76.71805, 9.98317 ], [ 76.71837, 9.98677 ], [ 76.72103, 9.98611 ], [ 76.72471, 9.98115 ], [ 76.73316, 9.98546 ], [ 76.73808, 9.98558 ], [ 76.74602, 9.99115 ], [ 76.75726, 9.9881 ], [ 76.76781, 9.98135 ], [ 76.76713, 9.98433 ], [ 76.76162, 9.99167 ], [ 76.7667, 9.9894 ], [ 76.76494, 9.99085 ], [ 76.76643, 9.99322 ], [ 76.76985, 9.99235 ], [ 76.77198, 9.99448 ], [ 76.7677, 9.9973 ], [ 76.7702, 10.0004 ], [ 76.76862, 10.00137 ], [ 76.7693, 10.00451 ], [ 76.76617, 10.01053 ], [ 76.78509, 10.03593 ], [ 76.793, 10.03352 ], [ 76.79604, 10.02976 ], [ 76.79923, 10.02982 ], [ 76.80693, 10.02662 ], [ 76.81217, 10.0218 ], [ 76.82529, 10.01413 ], [ 76.83263, 10.01293 ], [ 76.83888, 10.02309 ], [ 76.84184, 10.02512 ], [ 76.83706, 10.027 ], [ 76.83292, 10.02677 ], [ 76.81914, 10.03535 ], [ 76.81396, 10.03755 ], [ 76.8126, 10.03691 ], [ 76.8064, 10.04179 ], [ 76.79892, 10.04242 ], [ 76.78868, 10.05111 ], [ 76.78275, 10.05947 ], [ 76.77612, 10.06128 ], [ 76.7708, 10.06557 ], [ 76.78246, 10.06688 ], [ 76.79267, 10.06341 ], [ 76.79721, 10.0655 ], [ 76.80141, 10.06333 ], [ 76.80862, 10.0659 ], [ 76.80254, 10.06009 ], [ 76.80589, 10.05753 ], [ 76.81307, 10.05851 ], [ 76.81093, 10.05918 ], [ 76.81344, 10.06015 ], [ 76.81017, 10.06192 ], [ 76.81151, 10.06275 ], [ 76.81901, 10.06156 ], [ 76.82052, 10.06275 ], [ 76.82676, 10.06236 ], [ 76.81802, 10.06881 ], [ 76.8189, 10.0716 ], [ 76.81748, 10.07276 ], [ 76.81556, 10.08081 ], [ 76.81864, 10.08421 ], [ 76.8247, 10.08643 ], [ 76.82422, 10.08754 ], [ 76.8267, 10.08946 ], [ 76.83984, 10.08395 ], [ 76.84685, 10.0792 ], [ 76.86655, 10.07358 ], [ 76.86472, 10.08328 ], [ 76.86544, 10.08866 ], [ 76.86844, 10.09455 ], [ 76.88509, 10.11758 ], [ 76.88652, 10.11766 ], [ 76.88858, 10.12259 ], [ 76.89049, 10.12327 ], [ 76.89514, 10.13315 ], [ 76.90548, 10.14002 ], [ 76.90714, 10.14389 ], [ 76.90502, 10.14898 ], [ 76.90779, 10.15236 ], [ 76.90758, 10.1552 ], [ 76.91064, 10.15737 ], [ 76.91421, 10.16548 ], [ 76.91971, 10.16809 ], [ 76.92261, 10.17579 ], [ 76.9287, 10.17888 ], [ 76.93249, 10.17809 ], [ 76.94315, 10.17213 ], [ 76.95551, 10.1695 ], [ 76.95778, 10.16648 ], [ 76.96366, 10.16515 ], [ 76.9689, 10.16029 ], [ 76.97027, 10.16175 ], [ 76.97696, 10.16058 ], [ 76.98494, 10.16557 ], [ 76.99063, 10.16086 ], [ 76.99962, 10.16219 ], [ 77.00434, 10.1698 ], [ 77.01603, 10.17265 ], [ 77.01721, 10.17509 ], [ 77.02511, 10.1787 ], [ 77.02732, 10.17422 ], [ 77.03087, 10.17234 ], [ 77.03703, 10.17294 ], [ 77.04542, 10.17636 ], [ 77.05875, 10.17736 ], [ 77.06356, 10.1695 ], [ 77.06929, 10.17379 ], [ 77.07612, 10.17233 ], [ 77.07828, 10.17588 ], [ 77.08293, 10.17184 ], [ 77.08732, 10.17528 ], [ 77.09012, 10.18194 ], [ 77.08923, 10.18575 ], [ 77.0877, 10.18457 ], [ 77.08641, 10.18539 ], [ 77.08097, 10.19122 ], [ 77.0813, 10.19256 ], [ 77.07674, 10.19447 ], [ 77.07734, 10.19611 ], [ 77.07491, 10.1966 ], [ 77.07396, 10.19542 ], [ 77.07196, 10.19649 ], [ 77.07084, 10.19432 ], [ 77.06794, 10.19613 ], [ 77.06708, 10.19842 ], [ 77.06943, 10.20542 ], [ 77.06567, 10.21116 ], [ 77.0643, 10.20969 ], [ 77.0562, 10.21119 ], [ 77.04984, 10.20569 ], [ 77.04812, 10.20513 ], [ 77.04522, 10.20694 ], [ 77.04289, 10.20301 ], [ 77.04145, 10.20322 ], [ 77.03797, 10.20632 ], [ 77.03108, 10.20722 ], [ 77.02761, 10.21155 ], [ 77.02137, 10.21352 ], [ 77.02148, 10.21487 ], [ 77.02427, 10.21585 ], [ 77.02395, 10.21698 ], [ 77.01542, 10.22248 ], [ 77.01868, 10.22612 ], [ 77.02443, 10.22912 ], [ 77.03854, 10.22975 ], [ 77.04712, 10.23352 ], [ 77.04966, 10.23061 ], [ 77.062, 10.23586 ], [ 77.06381, 10.24003 ], [ 77.06325, 10.24766 ], [ 77.0565, 10.25359 ], [ 77.05706, 10.25532 ], [ 77.05358, 10.26165 ], [ 77.05255, 10.25803 ], [ 77.04425, 10.25277 ], [ 77.03254, 10.25164 ], [ 77.02999, 10.25077 ], [ 77.02918, 10.2474 ], [ 77.0206, 10.24616 ], [ 77.01332, 10.23956 ], [ 77.00762, 10.23748 ], [ 77.00534, 10.23275 ], [ 77.00118, 10.22967 ], [ 76.99535, 10.22964 ], [ 76.98468, 10.21836 ], [ 76.97262, 10.2284 ], [ 76.96607, 10.2294 ], [ 76.95964, 10.23242 ], [ 76.95297, 10.23074 ], [ 76.94147, 10.23919 ], [ 76.93869, 10.23936 ], [ 76.93397, 10.23502 ], [ 76.92301, 10.23275 ], [ 76.91912, 10.23429 ], [ 76.91486, 10.23734 ], [ 76.91233, 10.24208 ], [ 76.90589, 10.24218 ], [ 76.90713, 10.24695 ], [ 76.90537, 10.25258 ], [ 76.9025, 10.25187 ], [ 76.89807, 10.25371 ], [ 76.89881, 10.25721 ], [ 76.89759, 10.25834 ], [ 76.89269, 10.25769 ], [ 76.89102, 10.25566 ], [ 76.89055, 10.25743 ], [ 76.8797, 10.2602 ], [ 76.87885, 10.26231 ], [ 76.88154, 10.26565 ], [ 76.88067, 10.26927 ], [ 76.87308, 10.27143 ], [ 76.86868, 10.2692 ], [ 76.8673, 10.27031 ], [ 76.86739, 10.27282 ], [ 76.86153, 10.27307 ], [ 76.84872, 10.28084 ], [ 76.84452, 10.28001 ], [ 76.84192, 10.28314 ], [ 76.83769, 10.28352 ], [ 76.834, 10.27585 ], [ 76.83066, 10.27518 ], [ 76.82792, 10.28079 ], [ 76.81122, 10.28595 ], [ 76.80533, 10.2849 ], [ 76.7986, 10.2772 ], [ 76.79682, 10.27727 ], [ 76.79467, 10.28014 ], [ 76.78811, 10.27715 ], [ 76.77666, 10.27638 ], [ 76.77602, 10.27104 ], [ 76.77034, 10.26876 ], [ 76.75978, 10.26992 ], [ 76.75441, 10.27452 ], [ 76.7537, 10.27761 ], [ 76.75078, 10.27828 ], [ 76.73065, 10.27062 ], [ 76.70793, 10.27006 ], [ 76.70622, 10.26735 ], [ 76.69729, 10.26434 ], [ 76.67111, 10.272 ], [ 76.66362, 10.2774 ], [ 76.66357, 10.28049 ], [ 76.64748, 10.28074 ], [ 76.64134, 10.27448 ], [ 76.63424, 10.27317 ], [ 76.62304, 10.27401 ], [ 76.62059, 10.28084 ], [ 76.605, 10.28075 ], [ 76.59218, 10.29244 ], [ 76.59159, 10.29935 ], [ 76.58709, 10.29864 ], [ 76.57836, 10.30303 ], [ 76.56798, 10.29386 ], [ 76.57477, 10.28697 ], [ 76.57491, 10.28452 ], [ 76.56808, 10.28552 ], [ 76.55621, 10.2832 ], [ 76.54652, 10.29007 ], [ 76.53433, 10.28801 ], [ 76.5263, 10.28464 ], [ 76.51781, 10.28814 ], [ 76.51023, 10.28932 ], [ 76.49837, 10.28771 ], [ 76.49506, 10.2926 ], [ 76.49255, 10.29386 ], [ 76.48417, 10.29184 ], [ 76.48062, 10.29321 ], [ 76.47334, 10.29167 ], [ 76.45982, 10.29677 ], [ 76.44898, 10.29688 ], [ 76.44508, 10.29321 ], [ 76.43913, 10.29459 ], [ 76.43199, 10.28953 ], [ 76.42947, 10.28927 ], [ 76.41697, 10.29409 ], [ 76.41876, 10.28882 ], [ 76.41301, 10.28846 ], [ 76.415, 10.28125 ], [ 76.40278, 10.27619 ], [ 76.39858, 10.26748 ], [ 76.39425, 10.2668 ], [ 76.3915, 10.26382 ], [ 76.39322, 10.25525 ], [ 76.37984, 10.25462 ], [ 76.37922, 10.25012 ], [ 76.38119, 10.24514 ], [ 76.37323, 10.24095 ], [ 76.34102, 10.23097 ], [ 76.34267, 10.23052 ], [ 76.34272, 10.22628 ], [ 76.33924, 10.22518 ], [ 76.33798, 10.21598 ], [ 76.33277, 10.20933 ], [ 76.31238, 10.20537 ], [ 76.3137, 10.1843 ], [ 76.3028, 10.18828 ], [ 76.30112, 10.18694 ], [ 76.30176, 10.18431 ], [ 76.29991, 10.18034 ], [ 76.29427, 10.17777 ], [ 76.28651, 10.17865 ], [ 76.28184, 10.17489 ], [ 76.27566, 10.17502 ], [ 76.27577, 10.17907 ], [ 76.27317, 10.18113 ], [ 76.27278, 10.18467 ], [ 76.26868, 10.18542 ], [ 76.26305, 10.18962 ], [ 76.26349, 10.19371 ], [ 76.26144, 10.19552 ], [ 76.26134, 10.1982 ], [ 76.265, 10.19819 ], [ 76.2653, 10.20063 ], [ 76.26117, 10.20223 ], [ 76.26012, 10.20089 ], [ 76.2579, 10.20104 ], [ 76.25599, 10.20259 ], [ 76.25078, 10.2007 ], [ 76.24648, 10.20303 ], [ 76.24581, 10.20541 ], [ 76.24383, 10.20341 ], [ 76.23869, 10.20443 ], [ 76.23731, 10.20265 ], [ 76.2354, 10.20274 ], [ 76.23488, 10.20397 ], [ 76.22152, 10.20696 ], [ 76.21355, 10.20095 ], [ 76.21522, 10.19593 ], [ 76.20973, 10.19591 ], [ 76.19659, 10.19192 ], [ 76.18911, 10.19163 ], [ 76.18061, 10.18919 ], [ 76.17679, 10.18648 ], [ 76.17091, 10.18513 ], [ 76.16637, 10.17809 ], [ 76.16328, 10.17876 ], [ 76.16481, 10.17733 ], [ 76.16349, 10.17622 ], [ 76.16506, 10.17719 ], [ 76.16623, 10.17559 ], [ 76.18177, 10.13034 ], [ 76.20113, 10.05578 ], [ 76.20426, 10.05037 ], [ 76.21327, 10.02167 ], [ 76.21865, 9.99237 ], [ 76.22265, 9.97964 ], [ 76.22604, 9.97232 ], [ 76.23728, 9.95931 ], [ 76.25115, 9.91856 ], [ 76.26055, 9.8818 ], [ 76.27702, 9.79006 ], [ 76.28471, 9.78994 ], [ 76.28387, 9.80403 ], [ 76.29333, 9.80616 ], [ 76.29373, 9.80855 ], [ 76.28832, 9.81887 ], [ 76.2856, 9.81737 ], [ 76.28165, 9.82274 ], [ 76.28067, 9.82682 ], [ 76.28169, 9.83191 ], [ 76.28668, 9.83726 ], [ 76.28778, 9.84973 ], [ 76.29984, 9.85197 ], [ 76.30071, 9.85419 ], [ 76.29631, 9.86797 ], [ 76.29702, 9.87067 ], [ 76.29427, 9.89163 ], [ 76.30255, 9.89088 ], [ 76.31195, 9.88345 ], [ 76.32264, 9.88136 ], [ 76.33254, 9.87684 ], [ 76.34293, 9.87838 ], [ 76.35123, 9.88161 ], [ 76.35419, 9.88426 ], [ 76.35891, 9.87963 ], [ 76.36184, 9.8733 ], [ 76.36719, 9.86797 ], [ 76.37189, 9.86003 ], [ 76.37338, 9.85578 ], [ 76.37144, 9.85299 ], [ 76.3712, 9.84714 ], [ 76.37422, 9.83697 ] ] ] } },
{ "type": "Feature", "properties": { "shapeName": "Kottayam", "shapeISO": "", "shapeID": "76128533B2576169508425", "shapeGroup": "IND", "shapeType": "ADM2" }, "geometry": { "type": "Polygon", "coordinates": [ [ [ 76.97113, 9.46493 ], [ 76.97347, 9.46716 ], [ 76.98329, 9.46678 ], [ 76.98612, 9.47047 ], [ 76.98556, 9.47998 ], [ 76.98327, 9.48328 ], [ 76.98556, 9.48623 ], [ 76.98461, 9.49 ], [ 76.97582, 9.50152 ], [ 76.97122, 9.50096 ], [ 76.96973, 9.50427 ], [ 76.968, 9.5047 ], [ 76.96754, 9.50735 ], [ 76.96315, 9.5091 ], [ 76.9589, 9.5041 ], [ 76.96054, 9.50047 ], [ 76.95733, 9.49679 ], [ 76.95638, 9.4918 ], [ 76.95168, 9.4899 ], [ 76.93698, 9.5053 ], [ 76.93015, 9.50238 ], [ 76.91977, 9.51047 ], [ 76.91926, 9.5122 ], [ 76.9053, 9.52158 ], [ 76.9047, 9.52799 ], [ 76.90272, 9.52776 ], [ 76.90375, 9.53212 ], [ 76.90246, 9.53818 ], [ 76.89181, 9.53937 ], [ 76.88889, 9.53826 ], [ 76.8875, 9.5398 ], [ 76.88948, 9.54666 ], [ 76.88553, 9.56237 ], [ 76.88709, 9.56545 ], [ 76.88625, 9.57681 ], [ 76.88343, 9.58108 ], [ 76.88674, 9.58337 ], [ 76.89273, 9.58553 ], [ 76.8955, 9.58479 ], [ 76.89687, 9.58625 ], [ 76.89376, 9.59826 ], [ 76.89431, 9.60354 ], [ 76.89212, 9.60543 ], [ 76.89419, 9.60923 ], [ 76.89213, 9.60808 ], [ 76.89056, 9.60884 ], [ 76.89292, 9.61434 ], [ 76.89191, 9.61754 ], [ 76.88959, 9.61918 ], [ 76.89503, 9.62087 ], [ 76.89409, 9.62807 ], [ 76.8966, 9.63358 ], [ 76.90486, 9.63341 ], [ 76.90818, 9.63112 ], [ 76.91037, 9.62683 ], [ 76.91461, 9.62561 ], [ 76.93124, 9.61432 ], [ 76.93384, 9.62049 ], [ 76.93538, 9.61982 ], [ 76.93652, 9.62122 ], [ 76.93423, 9.62252 ], [ 76.9332, 9.62687 ], [ 76.92414, 9.63579 ], [ 76.91977, 9.64322 ], [ 76.92122, 9.64711 ], [ 76.92332, 9.6461 ], [ 76.92396, 9.64954 ], [ 76.92712, 9.64983 ], [ 76.92865, 9.6532 ], [ 76.91666, 9.66406 ], [ 76.91298, 9.67113 ], [ 76.90393, 9.67739 ], [ 76.9047, 9.68489 ], [ 76.89892, 9.69985 ], [ 76.89359, 9.70776 ], [ 76.88961, 9.71729 ], [ 76.86972, 9.72864 ], [ 76.86866, 9.73537 ], [ 76.86166, 9.72965 ], [ 76.84806, 9.74238 ], [ 76.84704, 9.74819 ], [ 76.84146, 9.75551 ], [ 76.82933, 9.7634 ], [ 76.83035, 9.76932 ], [ 76.81661, 9.78055 ], [ 76.80709, 9.79141 ], [ 76.78073, 9.80796 ], [ 76.77136, 9.81019 ], [ 76.75592, 9.81758 ], [ 76.75099, 9.814 ], [ 76.75223, 9.80645 ], [ 76.74386, 9.80444 ], [ 76.73628, 9.8081 ], [ 76.73157, 9.81284 ], [ 76.72428, 9.81271 ], [ 76.71829, 9.81854 ], [ 76.71241, 9.81977 ], [ 76.71206, 9.82236 ], [ 76.70103, 9.82549 ], [ 76.6976, 9.83371 ], [ 76.69278, 9.83327 ], [ 76.69262, 9.8344 ], [ 76.68676, 9.8332 ], [ 76.684, 9.83962 ], [ 76.68059, 9.8385 ], [ 76.67739, 9.83998 ], [ 76.67616, 9.84248 ], [ 76.66927, 9.84447 ], [ 76.66533, 9.83961 ], [ 76.6529, 9.84136 ], [ 76.64814, 9.84046 ], [ 76.6301, 9.84973 ], [ 76.63071, 9.85587 ], [ 76.62579, 9.85805 ], [ 76.61943, 9.85632 ], [ 76.61784, 9.85235 ], [ 76.61291, 9.85416 ], [ 76.61126, 9.84883 ], [ 76.61811, 9.84067 ], [ 76.61846, 9.83744 ], [ 76.61321, 9.83867 ], [ 76.61156, 9.84242 ], [ 76.60988, 9.842 ], [ 76.61004, 9.84037 ], [ 76.60757, 9.84002 ], [ 76.60361, 9.84541 ], [ 76.59445, 9.84626 ], [ 76.59477, 9.84446 ], [ 76.59357, 9.84513 ], [ 76.59292, 9.84406 ], [ 76.5934, 9.84147 ], [ 76.59044, 9.84348 ], [ 76.58875, 9.84203 ], [ 76.58162, 9.84319 ], [ 76.58361, 9.83708 ], [ 76.5819, 9.8354 ], [ 76.58326, 9.82653 ], [ 76.582, 9.82199 ], [ 76.57704, 9.81916 ], [ 76.5697, 9.82388 ], [ 76.56739, 9.82342 ], [ 76.56507, 9.82005 ], [ 76.56293, 9.82045 ], [ 76.55983, 9.8145 ], [ 76.56075, 9.81051 ], [ 76.55839, 9.80827 ], [ 76.5579, 9.80203 ], [ 76.55115, 9.80134 ], [ 76.54874, 9.79944 ], [ 76.54798, 9.80379 ], [ 76.54388, 9.80634 ], [ 76.54363, 9.80882 ], [ 76.546, 9.81321 ], [ 76.54073, 9.81401 ], [ 76.54103, 9.82145 ], [ 76.53366, 9.82504 ], [ 76.52631, 9.82657 ], [ 76.52218, 9.8236 ], [ 76.51967, 9.83343 ], [ 76.52073, 9.83555 ], [ 76.51627, 9.84157 ], [ 76.51621, 9.84831 ], [ 76.50737, 9.8515 ], [ 76.50636, 9.85006 ], [ 76.49965, 9.85126 ], [ 76.48727, 9.84623 ], [ 76.48413, 9.84325 ], [ 76.4833, 9.84614 ], [ 76.47587, 9.84246 ], [ 76.47582, 9.84401 ], [ 76.46005, 9.84848 ], [ 76.45563, 9.84119 ], [ 76.45144, 9.84106 ], [ 76.4484, 9.835 ], [ 76.42896, 9.82445 ], [ 76.42248, 9.82347 ], [ 76.42112, 9.82444 ], [ 76.41535, 9.82279 ], [ 76.41353, 9.82843 ], [ 76.40869, 9.8287 ], [ 76.40576, 9.83114 ], [ 76.3964, 9.83079 ], [ 76.38998, 9.84445 ], [ 76.38186, 9.84334 ], [ 76.37422, 9.83697 ], [ 76.37975, 9.83121 ], [ 76.38309, 9.8206 ], [ 76.38178, 9.81527 ], [ 76.37125, 9.80362 ], [ 76.36694, 9.79428 ], [ 76.3694, 9.78501 ], [ 76.37429, 9.78027 ], [ 76.37335, 9.77585 ], [ 76.37452, 9.76999 ], [ 76.37868, 9.76373 ], [ 76.38048, 9.76334 ], [ 76.3824, 9.7515 ], [ 76.38255, 9.72718 ], [ 76.37887, 9.71089 ], [ 76.37787, 9.69645 ], [ 76.40446, 9.68579 ], [ 76.39979, 9.66939 ], [ 76.39831, 9.65509 ], [ 76.40126, 9.63901 ], [ 76.39396, 9.54804 ], [ 76.40628, 9.55328 ], [ 76.4058, 9.55886 ], [ 76.41832, 9.56394 ], [ 76.41711, 9.56087 ], [ 76.41818, 9.55962 ], [ 76.42402, 9.55649 ], [ 76.43522, 9.55387 ], [ 76.44736, 9.55874 ], [ 76.46724, 9.56199 ], [ 76.46754, 9.54411 ], [ 76.4799, 9.53846 ], [ 76.48143, 9.53579 ], [ 76.48108, 9.50615 ], [ 76.48359, 9.50753 ], [ 76.49603, 9.50565 ], [ 76.49962, 9.50265 ], [ 76.5068, 9.50304 ], [ 76.5077, 9.50147 ], [ 76.51154, 9.50126 ], [ 76.51238, 9.49984 ], [ 76.5106, 9.49864 ], [ 76.51006, 9.48978 ], [ 76.50849, 9.48917 ], [ 76.51078, 9.47819 ], [ 76.50757, 9.47628 ], [ 76.50727, 9.46738 ], [ 76.49893, 9.45258 ], [ 76.4995, 9.44841 ], [ 76.49693, 9.44346 ], [ 76.4992, 9.43986 ], [ 76.50424, 9.44006 ], [ 76.50443, 9.43844 ], [ 76.5096, 9.43844 ], [ 76.51305, 9.43661 ], [ 76.50613, 9.42976 ], [ 76.50629, 9.42868 ], [ 76.50782, 9.42897 ], [ 76.50711, 9.42367 ], [ 76.50842, 9.42357 ], [ 76.50955, 9.41888 ], [ 76.50819, 9.41739 ], [ 76.50754, 9.41145 ], [ 76.50891, 9.40753 ], [ 76.50758, 9.40496 ], [ 76.51487, 9.40065 ], [ 76.51805, 9.40047 ], [ 76.5175, 9.40746 ], [ 76.51911, 9.40876 ], [ 76.52722, 9.40873 ], [ 76.52786, 9.41252 ], [ 76.53237, 9.41289 ], [ 76.53271, 9.41671 ], [ 76.5375, 9.41707 ], [ 76.53914, 9.41441 ], [ 76.54192, 9.42061 ], [ 76.54511, 9.42083 ], [ 76.54506, 9.42302 ], [ 76.55051, 9.42196 ], [ 76.5551, 9.42493 ], [ 76.5569, 9.41321 ], [ 76.56104, 9.41134 ], [ 76.56633, 9.41073 ], [ 76.58072, 9.42224 ], [ 76.58845, 9.42081 ], [ 76.59236, 9.41856 ], [ 76.59497, 9.41278 ], [ 76.59832, 9.42139 ], [ 76.5938, 9.42379 ], [ 76.59475, 9.43593 ], [ 76.59224, 9.44442 ], [ 76.59316, 9.44866 ], [ 76.59631, 9.44697 ], [ 76.59929, 9.45069 ], [ 76.6062, 9.45047 ], [ 76.60456, 9.45768 ], [ 76.61154, 9.45467 ], [ 76.61094, 9.46022 ], [ 76.61816, 9.46126 ], [ 76.62156, 9.45967 ], [ 76.62462, 9.46172 ], [ 76.62761, 9.46172 ], [ 76.62881, 9.47169 ], [ 76.6333, 9.47169 ], [ 76.63684, 9.46254 ], [ 76.64262, 9.46817 ], [ 76.64409, 9.47906 ], [ 76.64994, 9.47824 ], [ 76.65265, 9.48128 ], [ 76.65635, 9.48201 ], [ 76.66884, 9.48243 ], [ 76.67412, 9.4808 ], [ 76.67765, 9.48478 ], [ 76.69014, 9.47715 ], [ 76.69732, 9.47821 ], [ 76.70177, 9.47694 ], [ 76.70463, 9.46624 ], [ 76.70938, 9.4585 ], [ 76.71011, 9.4539 ], [ 76.71553, 9.4565 ], [ 76.71697, 9.4581 ], [ 76.71545, 9.45897 ], [ 76.71657, 9.46064 ], [ 76.72195, 9.46477 ], [ 76.73151, 9.46669 ], [ 76.73009, 9.4702 ], [ 76.73201, 9.47015 ], [ 76.73457, 9.47436 ], [ 76.73789, 9.4755 ], [ 76.74585, 9.47355 ], [ 76.74796, 9.47424 ], [ 76.75033, 9.46894 ], [ 76.75052, 9.46283 ], [ 76.75234, 9.46481 ], [ 76.75378, 9.46289 ], [ 76.75202, 9.46132 ], [ 76.75374, 9.45821 ], [ 76.75291, 9.45502 ], [ 76.75031, 9.45533 ], [ 76.75037, 9.45227 ], [ 76.75602, 9.45381 ], [ 76.76323, 9.44485 ], [ 76.76302, 9.44197 ], [ 76.76689, 9.43659 ], [ 76.76849, 9.43689 ], [ 76.77003, 9.44139 ], [ 76.78454, 9.44861 ], [ 76.78917, 9.44877 ], [ 76.79095, 9.44665 ], [ 76.79434, 9.44656 ], [ 76.79487, 9.44951 ], [ 76.79356, 9.45092 ], [ 76.79576, 9.45379 ], [ 76.80079, 9.45137 ], [ 76.80187, 9.45864 ], [ 76.80494, 9.45504 ], [ 76.82033, 9.4552 ], [ 76.82499, 9.44567 ], [ 76.82786, 9.44653 ], [ 76.83059, 9.45228 ], [ 76.83448, 9.45227 ], [ 76.83696, 9.44957 ], [ 76.84668, 9.44958 ], [ 76.85044, 9.44541 ], [ 76.85435, 9.44943 ], [ 76.85348, 9.45235 ], [ 76.85523, 9.45381 ], [ 76.85338, 9.45449 ], [ 76.85477, 9.45719 ], [ 76.85621, 9.45707 ], [ 76.85861, 9.45356 ], [ 76.86261, 9.45311 ], [ 76.87137, 9.44808 ], [ 76.87946, 9.44657 ], [ 76.88716, 9.44283 ], [ 76.90068, 9.43357 ], [ 76.9062, 9.43153 ], [ 76.90702, 9.42903 ], [ 76.91177, 9.42612 ], [ 76.92152, 9.42572 ], [ 76.92475, 9.42398 ], [ 76.92598, 9.42223 ], [ 76.92389, 9.41708 ], [ 76.92675, 9.41545 ], [ 76.93397, 9.41803 ], [ 76.93706, 9.421 ], [ 76.942, 9.42079 ], [ 76.94098, 9.4317 ], [ 76.94641, 9.43505 ], [ 76.94175, 9.44518 ], [ 76.95346, 9.45021 ], [ 76.95698, 9.45746 ], [ 76.96017, 9.45821 ], [ 76.96005, 9.46133 ], [ 76.96384, 9.4641 ], [ 76.97113, 9.46493 ] ] ] } }
]
}
